name,sci_name,state,county,points,link,img,lat,long
Sequoia Giant,Sequoiadendron giganteum,CA,Tulare,1321,https://www.americanforests.org?page_id=56124,https://www.americanforests.org/wp-content/plugins/bigtrees/view_image.php?area=web_pic&image_id=5994,36.2516475,-118.852583
Redwood Coast,Sequoia sempervirens,CA,Del Norte,1223,https://www.americanforests.org?page_id=85016,https://www.americanforests.org/wp-content/plugins/bigtrees/view_image.php?area=web_pic&image_id=6625,41.7261767,-123.91328
Redwood Coast,Sequoia sempervirens,CA,Humboldt,1216,https://www.americanforests.org?page_id=84992,https://www.americanforests.org/wp-content/plugins/bigtrees/view_image.php?area=web_pic&image_id=1147,40.5997415,-123.8997734
Spruce Sitka,Picea sitchensis,WA,Grays Harbor,951,https://www.americanforests.org?page_id=56046,https://www.americanforests.org/wp-content/plugins/bigtrees/view_image.php?area=web_pic&image_id=614,47.1744169,-123.8658829
Redcedar Western,Thuja plicata,WA,Clallam,922,https://www.americanforests.org?page_id=64651,https://www.americanforests.org/wp-content/plugins/bigtrees/view_image.php?area=web_pic&image_id=5793,47.9998383,-123.7373472
Douglas-fir Coast,Pseudotsuga menziesii,WA,Grays Harbor,891,https://www.americanforests.org?page_id=64658,https://www.americanforests.org/wp-content/plugins/bigtrees/view_image.php?area=web_pic&image_id=3594,47.1744169,-123.8658829
Port-orford-cedar ,Chamaecyparis lawsoniana,OR,Coos,773,https://www.americanforests.org?page_id=56110,https://www.americanforests.org/wp-content/plugins/bigtrees/view_image.php?area=web_pic&image_id=6646,43.2184144,-124.109621
Eucalyptus Bluegum,Eucalyptus globulus,CA,Humboldt,759,https://www.americanforests.org?page_id=57971,https://www.americanforests.org/wp-content/plugins/bigtrees/view_image.php?area=web_pic&image_id=5660,40.5997415,-123.8997734
Baldcypress Common,Taxodium distichum,LA,West Feliciana,739,https://www.americanforests.org?page_id=60024,https://www.americanforests.org/wp-content/plugins/bigtrees/view_image.php?area=web_pic&image_id=3065,30.709264,-91.146021
California-laurel ,Umbellularia californica,OR,Curry,724,https://www.americanforests.org?page_id=85025,https://www.americanforests.org/wp-content/plugins/bigtrees/NoImageAvailablePicture.jpg,42.4265426,-124.216879
Cypress Monterey,Cupressus macrocarpa,CA,San Mateo,718,https://www.americanforests.org?page_id=82304,https://www.americanforests.org/wp-content/plugins/bigtrees/view_image.php?area=web_pic&image_id=6099,37.496904,-122.3330573
Cottonwood Fremont,Populus fremontii ssp. fremontii,AZ,Yavapai,702,https://www.americanforests.org?page_id=55482,https://www.americanforests.org/wp-content/plugins/bigtrees/view_image.php?area=web_pic&image_id=5643,34.5668857,-112.5515965
Incense-cedar ,Calocedrus decurrens,CA,Siskiyou,644,https://www.americanforests.org?page_id=57974,https://www.americanforests.org/wp-content/plugins/bigtrees/view_image.php?area=web_pic&image_id=5900,41.5007223,-122.54435414752092
Incense-cedar ,Calocedrus decurrens,OR,Josephine,633,https://www.americanforests.org?page_id=55534,https://www.americanforests.org/wp-content/plugins/bigtrees/view_image.php?area=web_pic&image_id=1916,42.3554368,-123.5602707
Oak Canyon live,Quercus chrysolepis,CA,San Bernardino,622,https://www.americanforests.org?page_id=57963,https://www.americanforests.org/wp-content/plugins/bigtrees/view_image.php?area=web_pic&image_id=6553,34.8253019,-116.0833144
Pine Sugar,Pinus lambertiana,CA,Tuolumne,615,https://www.americanforests.org?page_id=56409,https://www.americanforests.org/wp-content/plugins/bigtrees/view_image.php?area=web_pic&image_id=5741,38.056944,-119.9919351
Maple Bigleaf,Acer macrophyllum,OR,Lane,605,https://www.americanforests.org?page_id=55414,https://www.americanforests.org/wp-content/plugins/bigtrees/NoImageAvailablePicture.jpg,43.9314567,-122.8575849
Tupelo Water,Nyssa aquatica,AR,White,599,https://www.americanforests.org?page_id=85013,https://www.americanforests.org/wp-content/plugins/bigtrees/view_image.php?area=web_pic&image_id=4372,35.2463042,-91.7169687
Alaska-cedar ,Cupressus nootkatensis,WA,Jefferson,585,https://www.americanforests.org?page_id=64650,https://www.americanforests.org/wp-content/plugins/bigtrees/view_image.php?area=web_pic&image_id=4184,41.0131342,-91.9718642
Tupelo Water,Nyssa aquatica,VA,Greensville,584,https://www.americanforests.org?page_id=55655,https://www.americanforests.org/wp-content/plugins/bigtrees/view_image.php?area=web_pic&image_id=5642,36.6405713,-77.5768298
Fir Noble,Abies procera,WA,Cowlitz,579,https://www.americanforests.org?page_id=64640,https://www.americanforests.org/wp-content/plugins/bigtrees/view_image.php?area=web_pic&image_id=4150,46.1998625,-122.6931507
Sycamore American,Platanus occidentalis,OH,Ashland,578,https://www.americanforests.org?page_id=64627,https://www.americanforests.org/wp-content/plugins/bigtrees/NoImageAvailablePicture.jpg,40.7887367,-82.2360391
Pine Pacific ponderosa,Pinus ponderosa var. benthamiana,CA,El Dorado,576,https://www.americanforests.org?page_id=82096,https://www.americanforests.org/wp-content/plugins/bigtrees/view_image.php?area=web_pic&image_id=5689,38.7574137,-120.5276129
Juniper Sierra,Juniperus grandis,CA,Tuolumne,573,https://www.americanforests.org?page_id=56123,https://www.americanforests.org/wp-content/plugins/bigtrees/view_image.php?area=web_pic&image_id=6112,38.056944,-119.9919351
Cottonwood Eastern,Populus deltoides ssp. deltoides,NE,Gage,565,https://www.americanforests.org?page_id=55420,https://www.americanforests.org/wp-content/plugins/bigtrees/NoImageAvailablePicture.jpg,40.2469449,-96.7021336
Cottonwood Eastern,Populus deltoides ssp. deltoides,KS,Sheridan,558,https://www.americanforests.org?page_id=85001,https://www.americanforests.org/wp-content/plugins/bigtrees/view_image.php?area=web_pic&image_id=7457,39.3530598,-100.4576457
Oak Live,Quercus virginiana,GA,Ware,558,https://www.americanforests.org?page_id=81862,https://www.americanforests.org/wp-content/plugins/bigtrees/view_image.php?area=web_pic&image_id=5294,31.1727229,-82.4829338
Hemlock Western,Tsuga heterophylla,WA,Jefferson,546,https://www.americanforests.org?page_id=64647,https://www.americanforests.org/wp-content/plugins/bigtrees/view_image.php?area=web_pic&image_id=8010,41.0131342,-91.9718642
Cottonwood Black,Populus balsamifera ssp. trichocarpa,OR,Polk,544,https://www.americanforests.org?page_id=64585,https://www.americanforests.org/wp-content/plugins/bigtrees/NoImageAvailablePicture.jpg,44.879673,-123.4599594
Fir California red,Abies magnifica,CA,Tuolumne,537,https://www.americanforests.org?page_id=55945,https://www.americanforests.org/wp-content/plugins/bigtrees/view_image.php?area=web_pic&image_id=5662,38.056944,-119.9919351
Pine Ponderosa,Pinus ponderosa var. ponderosa,OR,Deschutes,532,https://www.americanforests.org?page_id=56122,https://www.americanforests.org/wp-content/plugins/bigtrees/view_image.php?area=web_pic&image_id=5776,43.8194838,-121.1669662
Cottonwood Plains,Populus deltoides ssp. monilifera,MT,Ravalli,530,https://www.americanforests.org?page_id=60075,https://www.americanforests.org/wp-content/plugins/bigtrees/view_image.php?area=web_pic&image_id=5901,46.0757223,-114.1139453
Oak Valley,Quercus lobata,CA,Mendocino,526,https://www.americanforests.org?page_id=60082,https://www.americanforests.org/wp-content/plugins/bigtrees/view_image.php?area=web_pic&image_id=5703,39.3176491,-123.4126399
Pine Great basin bristlecone,Pinus longaeva,NV,Clark,518,https://www.americanforests.org?page_id=64634,https://www.americanforests.org/wp-content/plugins/bigtrees/view_image.php?area=web_pic&image_id=5975,36.3467726,-115.0907378
Yellow-poplar Tuliptree,Liriodendron tulipifera,VA,Chesapeake,511,https://www.americanforests.org?page_id=55767,https://www.americanforests.org/wp-content/plugins/bigtrees/view_image.php?area=web_pic&image_id=1888,36.7183708,-76.2466798
Fir Grand,Abies grandis,CA,Humboldt,511,https://www.americanforests.org?page_id=56457,https://www.americanforests.org/wp-content/plugins/bigtrees/view_image.php?area=web_pic&image_id=5668,40.5997415,-123.8997734
Fir Grand,Abies grandis,WA,Clallam,504,https://www.americanforests.org?page_id=55998,https://www.americanforests.org/wp-content/plugins/bigtrees/view_image.php?area=web_pic&image_id=5903,47.9998383,-123.7373472
Sycamore California,Platanus racemosa,CA,Stanislaus,496,https://www.americanforests.org?page_id=81817,https://www.americanforests.org/wp-content/plugins/bigtrees/view_image.php?area=web_pic&image_id=5905,37.5500871,-121.0501425
Pine Jeffrey,Pinus jeffreyi,CA,Fresno,492,https://www.americanforests.org?page_id=65287,https://www.americanforests.org/wp-content/plugins/bigtrees/view_image.php?area=web_pic&image_id=4251,36.6713502,-119.8155355
Willow Goodding,Salix gooddingii,NM,Taos,485,https://www.americanforests.org?page_id=55609,https://www.americanforests.org/wp-content/plugins/bigtrees/view_image.php?area=web_pic&image_id=5137,36.4925795,-105.6812782
Pine Western white,Pinus monticola,NV,Douglas,483,https://www.americanforests.org?page_id=64547,https://www.americanforests.org/wp-content/plugins/bigtrees/view_image.php?area=web_pic&image_id=4289,38.9072611,-119.6201824
Acacia Koa,Acacia koa,HI,HawaiÊ»i,481,https://www.americanforests.org?page_id=55511,https://www.americanforests.org/wp-content/plugins/bigtrees/view_image.php?area=web_pic&image_id=8034,19.6273325,-155.5645619
Oak Cherrybark,Quercus pagoda,VA,Portsmouth,480,https://www.americanforests.org?page_id=55737,https://www.americanforests.org/wp-content/plugins/bigtrees/NoImageAvailablePicture.jpg,50.783656,-1.0867793
Willow White,Salix alba,MI,Ingham,477,https://www.americanforests.org?page_id=60056,https://www.americanforests.org/wp-content/plugins/bigtrees/view_image.php?area=web_pic&image_id=2906,42.5860505,-84.3800841
Fir California white,Abies concolor var. lowiana,CA,Tuolumne,471,https://www.americanforests.org?page_id=67729,https://www.americanforests.org/wp-content/plugins/bigtrees/view_image.php?area=web_pic&image_id=4541,38.056944,-119.9919351
Fir California white,Abies concolor var. lowiana,CA,Mariposa,471,https://www.americanforests.org?page_id=64545,https://www.americanforests.org/wp-content/plugins/bigtrees/view_image.php?area=web_pic&image_id=4167,37.570148,-119.9036592
Fir California white,Abies concolor var. lowiana,CA,Mariposa,468,https://www.americanforests.org?page_id=84924,https://www.americanforests.org/wp-content/plugins/bigtrees/view_image.php?area=web_pic&image_id=6234,37.570148,-119.9036592
Oak Willow,Quercus phellos,VA,Northampton,467,https://www.americanforests.org?page_id=55384,https://www.americanforests.org/wp-content/plugins/bigtrees/view_image.php?area=web_pic&image_id=5008,40.7451356,-75.3289302
Fir California white,Abies concolor var. lowiana,CA,Mariposa,467,https://www.americanforests.org?page_id=84923,https://www.americanforests.org/wp-content/plugins/bigtrees/view_image.php?area=web_pic&image_id=6240,37.570148,-119.9036592
Oak Overcup,Quercus lyrata,VA,Isle of Wight,464,https://www.americanforests.org?page_id=55763,https://www.americanforests.org/wp-content/plugins/bigtrees/NoImageAvailablePicture.jpg,36.8953677,-76.7248143
Oak Willow,Quercus phellos,NC,Union,461,https://www.americanforests.org?page_id=84925,https://www.americanforests.org/wp-content/plugins/bigtrees/view_image.php?area=web_pic&image_id=7945,34.9795158,-80.5128209
Cottonwood Rio grande,Populus deltoides ssp. wislizeni,CO,La Plata,460,https://www.americanforests.org?page_id=64604,https://www.americanforests.org/wp-content/plugins/bigtrees/view_image.php?area=web_pic&image_id=5917,37.2889732,-107.8539029
Oak Willow,Quercus phellos,VA,Mathews,459,https://www.americanforests.org?page_id=64744,https://www.americanforests.org/wp-content/plugins/bigtrees/NoImageAvailablePicture.jpg,37.4481394,-76.331696
Douglas-fir Bigcone,Pseudotsuga macrocarpa,CA,Los Angeles,458,https://www.americanforests.org?page_id=64653,https://www.americanforests.org/wp-content/plugins/bigtrees/view_image.php?area=web_pic&image_id=2943,34.3155072,-118.2096814
Pine Rocky mountain ponderosa,Pinus ponderosa var. scopulorum,MT,Mineral,456,https://www.americanforests.org?page_id=56456,https://www.americanforests.org/wp-content/plugins/bigtrees/view_image.php?area=web_pic&image_id=7866,37.6584133,-106.9311267
Oak Shumard,Quercus shumardii,KY,Powell,455,https://www.americanforests.org?page_id=55345,https://www.americanforests.org/wp-content/plugins/bigtrees/view_image.php?area=web_pic&image_id=2145,37.8192526,-83.8239902
Oak Northern red,Quercus rubra,OH,Ashtabula,455,https://www.americanforests.org?page_id=67272,https://www.americanforests.org/wp-content/plugins/bigtrees/view_image.php?area=web_pic&image_id=5866,41.7167229,-80.74947
Eucalyptus Longbeak,Eucalyptus camaldulensis,AZ,Yuma,455,https://www.americanforests.org?page_id=84946,https://www.americanforests.org/wp-content/plugins/bigtrees/view_image.php?area=web_pic&image_id=7658,32.7915374,-113.8975031
Oak Willow,Quercus phellos,VA,Chesapeake,454,https://www.americanforests.org?page_id=64625,https://www.americanforests.org/wp-content/plugins/bigtrees/view_image.php?area=web_pic&image_id=5009,36.7183708,-76.2466798
Oak Eastern white,Quercus alba,VA,Brunswick,451,https://www.americanforests.org?page_id=67426,https://www.americanforests.org/wp-content/plugins/bigtrees/view_image.php?area=web_pic&image_id=5365,34.0624283,-78.24434001566806
Oak California black,Quercus kelloggii,CA,Mariposa,449,https://www.americanforests.org?page_id=84981,https://www.americanforests.org/wp-content/plugins/bigtrees/view_image.php?area=web_pic&image_id=6312,37.570148,-119.9036592
Oak Black,Quercus velutina,CT,Hartford,447,https://www.americanforests.org?page_id=56041,https://www.americanforests.org/wp-content/plugins/bigtrees/view_image.php?area=web_pic&image_id=4931,41.7923478,-72.722324
Fir Pacific silver,Abies amabilis,WA,Clallam,444,https://www.americanforests.org?page_id=55931,https://www.americanforests.org/wp-content/plugins/bigtrees/view_image.php?area=web_pic&image_id=6078,47.9998383,-123.7373472
Locust Black,Robinia pseudoacacia,NY,Livingston,443,https://www.americanforests.org?page_id=56092,https://www.americanforests.org/wp-content/plugins/bigtrees/view_image.php?area=web_pic&image_id=1380,42.7360902,-77.7781416
Peppertree ,Schinus molle,CA,Orange,442,https://www.americanforests.org?page_id=56106,https://www.americanforests.org/wp-content/plugins/bigtrees/view_image.php?area=web_pic&image_id=7978,33.7500378,-117.8704931
Oak Southern red,Quercus falcata,VA,Sussex,442,https://www.americanforests.org?page_id=81836,https://www.americanforests.org/wp-content/plugins/bigtrees/view_image.php?area=web_pic&image_id=5000,36.9096897,-77.2741121
Eucalyptus Longbeak,Eucalyptus camaldulensis,AZ,Pinal,441,https://www.americanforests.org?page_id=64569,https://www.americanforests.org/wp-content/plugins/bigtrees/NoImageAvailablePicture.jpg,32.8085851,-111.4426212
Oak Southern red,Quercus falcata,VA,James City,440,https://www.americanforests.org?page_id=84948,https://www.americanforests.org/wp-content/plugins/bigtrees/view_image.php?area=web_pic&image_id=5002,37.3211485,-76.7972515
Oak Coast live,Quercus agrifolia,CA,San Luis Obispo,436,https://www.americanforests.org?page_id=56366,https://www.americanforests.org/wp-content/plugins/bigtrees/view_image.php?area=web_pic&image_id=6483,35.3540209,-120.3757163
Oak Coast live,Quercus agrifolia,CA,Riverside,432,https://www.americanforests.org?page_id=55326,https://www.americanforests.org/wp-content/plugins/bigtrees/view_image.php?area=web_pic&image_id=5722,33.7219991,-116.0372472
Baldcypress Montezuma,Taxodium mucronatum,TX,Cameron,429,https://www.americanforests.org?page_id=55983,https://www.americanforests.org/wp-content/plugins/bigtrees/view_image.php?area=web_pic&image_id=1090,26.1291189,-97.4134281
Oak Texas live,Quercus fusiformis,TX,Bosque,428,https://www.americanforests.org?page_id=56410,https://www.americanforests.org/wp-content/plugins/bigtrees/view_image.php?area=web_pic&image_id=8026,31.8778358,-97.6561014
Oak Swamp chestnut,Quercus michauxii,VA,Virginia Beach,426,https://www.americanforests.org?page_id=67428,https://www.americanforests.org/wp-content/plugins/bigtrees/view_image.php?area=web_pic&image_id=5918,36.8529841,-75.9774183
Larch Western,Larix occidentalis,MT,Missoula,426,https://www.americanforests.org?page_id=55515,https://www.americanforests.org/wp-content/plugins/bigtrees/view_image.php?area=web_pic&image_id=2942,46.9653891,-113.9232612
Willow Black,Salix nigra,MN,Washington,425,https://www.americanforests.org?page_id=64564,https://www.americanforests.org/wp-content/plugins/bigtrees/NoImageAvailablePicture.jpg,45.0078657,-92.874565
Oak Laurel,Quercus laurifolia,VA,Chesapeake,425,https://www.americanforests.org?page_id=56426,https://www.americanforests.org/wp-content/plugins/bigtrees/view_image.php?area=web_pic&image_id=7940,36.7183708,-76.2466798
Spruce Brewer,Picea breweriana,CA,Trinity,424,https://www.americanforests.org?page_id=57965,https://www.americanforests.org/wp-content/plugins/bigtrees/NoImageAvailablePicture.jpg,40.6053256,-123.171268
Oak Laurel,Quercus laurifolia,VA,Chesapeake,418,https://www.americanforests.org?page_id=81841,https://www.americanforests.org/wp-content/plugins/bigtrees/view_image.php?area=web_pic&image_id=5005,36.7183708,-76.2466798
Pecan ,Carya illinoinensis,VA,Isle of Wight,417,https://www.americanforests.org?page_id=60086,https://www.americanforests.org/wp-content/plugins/bigtrees/view_image.php?area=web_pic&image_id=5913,36.8953677,-76.7248143
Osage-orange ,Maclura pomifera,VA,Charlotte,416,https://www.americanforests.org?page_id=55524,https://www.americanforests.org/wp-content/plugins/bigtrees/view_image.php?area=web_pic&image_id=6535,26.9013269,-81.9156799
Poplar White,Populus alba,MT,Gallatin,415,https://www.americanforests.org?page_id=60071,https://www.americanforests.org/wp-content/plugins/bigtrees/view_image.php?area=web_pic&image_id=2270,37.7509507,-88.2264519
Ginkgo ,Ginkgo biloba,WV,Jefferson,414,https://www.americanforests.org?page_id=64548,https://www.americanforests.org/wp-content/plugins/bigtrees/view_image.php?area=web_pic&image_id=5878,39.2954767,-77.8782587
Oak Bur,Quercus macrocarpa,WV,Mason,414,https://www.americanforests.org?page_id=81842,https://www.americanforests.org/wp-content/plugins/bigtrees/view_image.php?area=web_pic&image_id=3037,38.7499013,-82.052456
Douglas-fir Rocky mountain,Pseudotsuga menziesii var. glauca,MT,Lincoln,414,https://www.americanforests.org?page_id=55401,https://www.americanforests.org/wp-content/plugins/bigtrees/view_image.php?area=web_pic&image_id=1674,35.4866424,-81.2062724
Osage-orange ,Maclura pomifera,DE,New Castle,412,https://www.americanforests.org?page_id=60079,https://www.americanforests.org/wp-content/plugins/bigtrees/view_image.php?area=web_pic&image_id=5133,39.6159851,-75.662956
Maple Silver,Acer saccharinum,VA,Fairfax,412,https://www.americanforests.org?page_id=67732,https://www.americanforests.org/wp-content/plugins/bigtrees/NoImageAvailablePicture.jpg,38.8156356,-77.2836849
Willow Weeping,Salix babylonica,VA,Tazewell,411,https://www.americanforests.org?page_id=56449,https://www.americanforests.org/wp-content/plugins/bigtrees/view_image.php?area=web_pic&image_id=7968,40.5126429,-89.5442084
Magnolia Cucumbertree,Magnolia acuminata,OH,Stark,409,https://www.americanforests.org?page_id=55894,https://www.americanforests.org/wp-content/plugins/bigtrees/view_image.php?area=web_pic&image_id=5841,40.7214654,-81.4399734
Oak Oregon white,Quercus garryana,OR,Multnomah,408,https://www.americanforests.org?page_id=55368,https://www.americanforests.org/wp-content/plugins/bigtrees/view_image.php?area=web_pic&image_id=2393,45.5093799,-122.4006413
Maple Silver,Acer saccharinum,VA,Bland,408,https://www.americanforests.org?page_id=84967,https://www.americanforests.org/wp-content/plugins/bigtrees/view_image.php?area=web_pic&image_id=7567,37.1312101,-81.1154109
Oak Chestnut,Quercus montana,DC,Ward 3,407,https://www.americanforests.org?page_id=81845,https://www.americanforests.org/wp-content/plugins/bigtrees/NoImageAvailablePicture.jpg,10.7456759,106.6892684
Pine Foxtail,Pinus balfouriana,CA,Tulare,405,https://www.americanforests.org?page_id=64665,https://www.americanforests.org/wp-content/plugins/bigtrees/view_image.php?area=web_pic&image_id=4176,36.2516475,-118.852583
Pine Torrey,Pinus torreyana,CA,Santa Barbara,404,https://www.americanforests.org?page_id=56099,https://www.americanforests.org/wp-content/plugins/bigtrees/view_image.php?area=web_pic&image_id=6319,34.7136533,-119.9858232
Maple Silver,Acer saccharinum,VA,Bath,404,https://www.americanforests.org?page_id=84963,https://www.americanforests.org/wp-content/plugins/bigtrees/view_image.php?area=web_pic&image_id=7570,38.1245248,-83.7249243
Beech European,Fagus sylvatica,PA,Philadelphia,403,https://www.americanforests.org?page_id=84944,https://www.americanforests.org/wp-content/plugins/bigtrees/NoImageAvailablePicture.jpg,40.0114538,-75.1326504
Pine Monterey,Pinus radiata,CA,Humboldt,403,https://www.americanforests.org?page_id=57960,https://www.americanforests.org/wp-content/plugins/bigtrees/view_image.php?area=web_pic&image_id=2861,40.5997415,-123.8997734
Maple Silver,Acer saccharinum,NH,Coos,402,https://www.americanforests.org?page_id=84988,https://www.americanforests.org/wp-content/plugins/bigtrees/view_image.php?area=web_pic&image_id=7571,44.698627,-71.3768039
Oak Swamp white,Quercus bicolor,NJ,Sussex,399,https://www.americanforests.org?page_id=64626,https://www.americanforests.org/wp-content/plugins/bigtrees/view_image.php?area=web_pic&image_id=5573,41.133372,-74.6930393
Basswood American,Tilia americana,KY,Fayette,399,https://www.americanforests.org?page_id=55458,https://www.americanforests.org/wp-content/plugins/bigtrees/view_image.php?area=web_pic&image_id=6120,38.0280648,-84.4722444
Mulberry Red,Morus rubra,AR,Ashley,398,https://www.americanforests.org?page_id=64550,https://www.americanforests.org/wp-content/plugins/bigtrees/NoImageAvailablePicture.jpg,33.1742582,-91.7295595
Elm Siberian,Ulmus pumila,UT,Salt Lake,398,https://www.americanforests.org?page_id=55321,https://www.americanforests.org/wp-content/plugins/bigtrees/view_image.php?area=web_pic&image_id=2430,40.6632297,-111.9103124
Ash White,Fraxinus americana,NJ,Morris,398,https://www.americanforests.org?page_id=55474,https://www.americanforests.org/wp-content/plugins/bigtrees/view_image.php?area=web_pic&image_id=5636,40.8679538,-74.5601181
Hackberry Common,Celtis occidentalis,OH,Hancock,398,https://www.americanforests.org?page_id=67754,https://www.americanforests.org/wp-content/plugins/bigtrees/view_image.php?area=web_pic&image_id=7612,40.9939911,-83.6587588
Cottonwood Meseta,Populus fremontii ssp. mesetae,TX,Jeff Davis,395,https://www.americanforests.org?page_id=64580,https://www.americanforests.org/wp-content/plugins/bigtrees/view_image.php?area=web_pic&image_id=3413,30.7018281,-104.1501698
Juniper Alligator,Juniperus deppeana,AZ,Yavapai,394,https://www.americanforests.org?page_id=57973,https://www.americanforests.org/wp-content/plugins/bigtrees/NoImageAvailablePicture.jpg,34.5668857,-112.5515965
Spruce Engelmann,Picea engelmannii,OR,Clackamas,394,https://www.americanforests.org?page_id=56463,https://www.americanforests.org/wp-content/plugins/bigtrees/NoImageAvailablePicture.jpg,45.1608821,-122.2305038
Elm American,Ulmus americana,MD,Baltimore,393,https://www.americanforests.org?page_id=85007,https://www.americanforests.org/wp-content/plugins/bigtrees/view_image.php?area=web_pic&image_id=8012,39.4445243,-76.6483482
Elm Slippery,Ulmus rubra,KY,Jefferson,393,https://www.americanforests.org?page_id=55418,https://www.americanforests.org/wp-content/plugins/bigtrees/view_image.php?area=web_pic&image_id=6128,38.1787175,-85.664528
Larch Subalpine,Larix lyallii,WA,Chelan,391,https://www.americanforests.org?page_id=64633,https://www.americanforests.org/wp-content/plugins/bigtrees/view_image.php?area=web_pic&image_id=4181,47.8012197,-120.6276904
Pine Sierra lodgepole,Pinus contorta var. murrayana,CA,San Bernardino,391,https://www.americanforests.org?page_id=82098,https://www.americanforests.org/wp-content/plugins/bigtrees/view_image.php?area=web_pic&image_id=5681,34.8253019,-116.0833144
Elm American,Ulmus americana,VA,Chesapeake,391,https://www.americanforests.org?page_id=84919,https://www.americanforests.org/wp-content/plugins/bigtrees/view_image.php?area=web_pic&image_id=6704,36.7183708,-76.2466798
Oak Chinkapin,Quercus muehlenbergii,OH,Fairfield,391,https://www.americanforests.org?page_id=84926,https://www.americanforests.org/wp-content/plugins/bigtrees/NoImageAvailablePicture.jpg,39.7886111,-82.6418883
Buckeye Yellow,Aesculus flava,VA,Alleghany,390,https://www.americanforests.org?page_id=55752,https://www.americanforests.org/wp-content/plugins/bigtrees/view_image.php?area=web_pic&image_id=6363,36.5029951,-81.1340843
Pine Eastern white,Pinus strobus,ME,Waldo,390,https://www.americanforests.org?page_id=81811,https://www.americanforests.org/wp-content/plugins/bigtrees/NoImageAvailablePicture.jpg,44.4870161,-69.1365185
Sweetgum ,Liquidambar styraciflua,NJ,Burlington,388,https://www.americanforests.org?page_id=84913,https://www.americanforests.org/wp-content/plugins/bigtrees/view_image.php?area=web_pic&image_id=7797,39.9325409,-74.7226665
Fir Subalpine,Abies lasiocarpa,WA,Jefferson,384,https://www.americanforests.org?page_id=64652,https://www.americanforests.org/wp-content/plugins/bigtrees/view_image.php?area=web_pic&image_id=3603,41.0131342,-91.9718642
Oak English,Quercus robur,WA,Thurston,382,https://www.americanforests.org?page_id=64654,https://www.americanforests.org/wp-content/plugins/bigtrees/view_image.php?area=web_pic&image_id=8117,46.9319983,-122.8855155
Oak Post,Quercus stellata,AL,Cherokee,381,https://www.americanforests.org?page_id=64594,https://www.americanforests.org/wp-content/plugins/bigtrees/view_image.php?area=web_pic&image_id=5595,31.8390826,-95.1791849
Oak Chinkapin,Quercus muehlenbergii,VA,Rockingham,381,https://www.americanforests.org?page_id=81844,https://www.americanforests.org/wp-content/plugins/bigtrees/view_image.php?area=web_pic&image_id=5059,36.3926798,-79.744144
Walnut Arizona,Juglans major,AZ,Pima,380,https://www.americanforests.org?page_id=82071,https://www.americanforests.org/wp-content/plugins/bigtrees/view_image.php?area=web_pic&image_id=1921,32.1112624,-111.6546163
Pine Gray,Pinus sabiniana,CA,Nevada,379,https://www.americanforests.org?page_id=84908,https://www.americanforests.org/wp-content/plugins/bigtrees/view_image.php?area=web_pic&image_id=7320,39.3540335,-120.8089843
Honeylocust ,Gleditsia triacanthos,VA,Botetourt,378,https://www.americanforests.org?page_id=67938,https://www.americanforests.org/wp-content/plugins/bigtrees/view_image.php?area=web_pic&image_id=5385,37.5520825,-79.8029569
Oak Darlington,Quercus hemisphaerica,VA,Richmond,378,https://www.americanforests.org?page_id=55513,https://www.americanforests.org/wp-content/plugins/bigtrees/view_image.php?area=web_pic&image_id=7916,40.564209,-74.12530461995391
Pine Coulter,Pinus coulteri,CA,San Bernardino,377,https://www.americanforests.org?page_id=84989,https://www.americanforests.org/wp-content/plugins/bigtrees/view_image.php?area=web_pic&image_id=1422,34.8253019,-116.0833144
Pine Washoe,Pinus washoensis,CA,Modoc,376,https://www.americanforests.org?page_id=55853,https://www.americanforests.org/wp-content/plugins/bigtrees/view_image.php?area=web_pic&image_id=138,41.5450487,-120.7435998
Pine Limber,Pinus flexilis,UT,Utah,375,https://www.americanforests.org?page_id=56108,https://www.americanforests.org/wp-content/plugins/bigtrees/view_image.php?area=web_pic&image_id=420,40.0841662,-111.6259473
Pine Limber,Pinus flexilis,UT,Cache,373,https://www.americanforests.org?page_id=60059,https://www.americanforests.org/wp-content/plugins/bigtrees/NoImageAvailablePicture.jpg,41.7042978,-111.7451159
Madrone Pacific,Arbutus menziesii,OR,Douglas,370,https://www.americanforests.org?page_id=85021,https://www.americanforests.org/wp-content/plugins/bigtrees/view_image.php?area=web_pic&image_id=1993,43.1922115,-123.1135963
Pine Loblolly,Pinus taeda,SC,Richland,370,https://www.americanforests.org?page_id=60072,https://www.americanforests.org/wp-content/plugins/bigtrees/view_image.php?area=web_pic&image_id=2304,34.0190006,-80.9176832
Mulberry White,Morus alba,KS,Douglas,367,https://www.americanforests.org?page_id=84976,https://www.americanforests.org/wp-content/plugins/bigtrees/view_image.php?area=web_pic&image_id=7820,38.8838392,-95.2874559
Maple Red,Acer rubrum,CT,New Haven,365,https://www.americanforests.org?page_id=67733,https://www.americanforests.org/wp-content/plugins/bigtrees/NoImageAvailablePicture.jpg,41.4082,-72.9330283
Willow Crack,Salix fragilis,NH,Grafton,365,https://www.americanforests.org?page_id=84991,https://www.americanforests.org/wp-content/plugins/bigtrees/view_image.php?area=web_pic&image_id=8033,43.9702453,-71.8742626
Maple Sugar,Acer saccharum,CT,New London,364,https://www.americanforests.org?page_id=64772,https://www.americanforests.org/wp-content/plugins/bigtrees/view_image.php?area=web_pic&image_id=8279,41.4915013,-72.1237666
Walnut Black,Juglans nigra,VA,Westmoreland,364,https://www.americanforests.org?page_id=80376,https://www.americanforests.org/wp-content/plugins/bigtrees/view_image.php?area=web_pic&image_id=7705,40.2930159,-79.4873204
Catalpa Northern,Catalpa speciosa,OH,Lawerence,363,https://www.americanforests.org?page_id=84927,https://www.americanforests.org/wp-content/plugins/bigtrees/view_image.php?area=web_pic&image_id=7695,39.679683,-81.603306
Maple Sugar,Acer saccharum,VA,Giles,363,https://www.americanforests.org?page_id=64592,https://www.americanforests.org/wp-content/plugins/bigtrees/view_image.php?area=web_pic&image_id=4538,37.3088528,-80.7098781
Cypress Arizona,Cupressus arizonica ssp. arizonica,AZ,Pima,362,https://www.americanforests.org?page_id=56116,https://www.americanforests.org/wp-content/plugins/bigtrees/view_image.php?area=web_pic&image_id=4225,32.1112624,-111.6546163
Mulberry Black,Morus nigra,MD,Carroll,360,https://www.americanforests.org?page_id=67277,https://www.americanforests.org/wp-content/plugins/bigtrees/view_image.php?area=web_pic&image_id=1379,39.5685399,-77.026707
Oak Scarlet,Quercus coccinea,NJ,Mercer,360,https://www.americanforests.org?page_id=55512,https://www.americanforests.org/wp-content/plugins/bigtrees/view_image.php?area=web_pic&image_id=1325,40.2807177,-74.7033717
Pondcypress ,Taxodium ascendens,FL,Lake,360,https://www.americanforests.org?page_id=55338,https://www.americanforests.org/wp-content/plugins/bigtrees/view_image.php?area=web_pic&image_id=1950,28.7006859,-81.78994
Maple Red,Acer rubrum,NJ,Salem,359,https://www.americanforests.org?page_id=84918,https://www.americanforests.org/wp-content/plugins/bigtrees/view_image.php?area=web_pic&image_id=7482,39.5980987,-75.3488201
Fir Rocky mountain white,Abies concolor,UT,Utah,359,https://www.americanforests.org?page_id=55430,https://www.americanforests.org/wp-content/plugins/bigtrees/view_image.php?area=web_pic&image_id=2856,40.0841662,-111.6259473
Oak Water,Quercus nigra,TX,Gregg,359,https://www.americanforests.org?page_id=84912,https://www.americanforests.org/wp-content/plugins/bigtrees/view_image.php?area=web_pic&image_id=7943,32.4492408,-94.8532848
Sassafras ,Sassafras albidum,KY,Daviess,358,https://www.americanforests.org?page_id=56117,https://www.americanforests.org/wp-content/plugins/bigtrees/view_image.php?area=web_pic&image_id=6085,37.6877924,-87.0818357
Oak Interior live,Quercus wislizeni,CA,Calaveras,358,https://www.americanforests.org?page_id=81861,https://www.americanforests.org/wp-content/plugins/bigtrees/NoImageAvailablePicture.jpg,38.2558181,-120.4981492
Spruce Norway,Picea abies,CT,Litchfield,357,https://www.americanforests.org?page_id=55365,https://www.americanforests.org/wp-content/plugins/bigtrees/view_image.php?area=web_pic&image_id=4936,41.767249,-73.2543049
Maple Sugar,Acer saccharum,NH,Rockingham,356,https://www.americanforests.org?page_id=84996,https://www.americanforests.org/wp-content/plugins/bigtrees/view_image.php?area=web_pic&image_id=7573,42.9966675,-71.1003143
Pine Bishop,Pinus muricata,CA,Marin,354,https://www.americanforests.org?page_id=82095,https://www.americanforests.org/wp-content/plugins/bigtrees/view_image.php?area=web_pic&image_id=5697,38.0409144,-122.6199638
Chestnut American,Castanea dentata,WA,Thurston,354,https://www.americanforests.org?page_id=64527,https://www.americanforests.org/wp-content/plugins/bigtrees/view_image.php?area=web_pic&image_id=3598,46.9319983,-122.8855155
Pondcypress ,Taxodium ascendens,FL,Lake,353,https://www.americanforests.org?page_id=81977,https://www.americanforests.org/wp-content/plugins/bigtrees/NoImageAvailablePicture.jpg,28.7006859,-81.78994
Ash Velvet,Fraxinus velutina,AZ,Yavapai,353,https://www.americanforests.org?page_id=67939,https://www.americanforests.org/wp-content/plugins/bigtrees/NoImageAvailablePicture.jpg,34.5668857,-112.5515965
Butternut ,Juglans cinerea,WA,Thurston,352,https://www.americanforests.org?page_id=84993,https://www.americanforests.org/wp-content/plugins/bigtrees/view_image.php?area=web_pic&image_id=7702,46.9319983,-122.8855155
Tupelo Black,Nyssa sylvatica,TX,Wood,349,https://www.americanforests.org?page_id=55918,https://www.americanforests.org/wp-content/plugins/bigtrees/NoImageAvailablePicture.jpg,32.7577475,-95.3812941
Ash Green,Fraxinus pennsylvanica,OH,Hocking,349,https://www.americanforests.org?page_id=82179,https://www.americanforests.org/wp-content/plugins/bigtrees/view_image.php?area=web_pic&image_id=7677,39.4644491,-82.5469722
Redwood Dawn,Metesequoia glyptostroboides,PA,Chester,349,https://www.americanforests.org?page_id=84915,https://www.americanforests.org/wp-content/plugins/bigtrees/view_image.php?area=web_pic&image_id=7809,39.9829308,-75.7652424
Chinkapin Giant,Chrysolepis chrysophylla,CA,Humboldt,348,https://www.americanforests.org?page_id=60045,https://www.americanforests.org/wp-content/plugins/bigtrees/NoImageAvailablePicture.jpg,40.5997415,-123.8997734
Catalpa Southern,Catalpa bignonioides,MD,Baltimore,347,https://www.americanforests.org?page_id=60043,https://www.americanforests.org/wp-content/plugins/bigtrees/view_image.php?area=web_pic&image_id=6660,39.4445243,-76.6483482
Chestnut American,Castanea dentata,WA,Thurston,347,https://www.americanforests.org?page_id=67748,https://www.americanforests.org/wp-content/plugins/bigtrees/view_image.php?area=web_pic&image_id=3600,46.9319983,-122.8855155
Ash Green,Fraxinus pennsylvanica,MD,Cecil,347,https://www.americanforests.org?page_id=83037,https://www.americanforests.org/wp-content/plugins/bigtrees/view_image.php?area=web_pic&image_id=6870,39.5729428,-75.9381806
Pagoda tree Japanese,Styphnolobium japonicum,MA,Dukes,345,https://www.americanforests.org?page_id=64583,https://www.americanforests.org/wp-content/plugins/bigtrees/view_image.php?area=web_pic&image_id=4943,41.3926378,-70.642011
Ash Green,Fraxinus pennsylvanica,VA,Fauquier,343,https://www.americanforests.org?page_id=84998,https://www.americanforests.org/wp-content/plugins/bigtrees/NoImageAvailablePicture.jpg,38.7513714,-77.8141221
Alder Arizona,Alnus oblongifolia,NM,Socorro,342,https://www.americanforests.org?page_id=56070,https://www.americanforests.org/wp-content/plugins/bigtrees/NoImageAvailablePicture.jpg,33.9904719,-106.9220832
Beech American,Fagus grandifolia,VA,New Kent,342,https://www.americanforests.org?page_id=67918,https://www.americanforests.org/wp-content/plugins/bigtrees/view_image.php?area=web_pic&image_id=5042,37.4971441,-76.9964301
Catalpa Southern,Catalpa bignonioides,TX,Dallas,342,https://www.americanforests.org?page_id=55736,https://www.americanforests.org/wp-content/plugins/bigtrees/NoImageAvailablePicture.jpg,32.7620405,-96.7790069
Magnolia Southern,Magnolia grandiflora,VA,Sussex,342,https://www.americanforests.org?page_id=85000,https://www.americanforests.org/wp-content/plugins/bigtrees/view_image.php?area=web_pic&image_id=7801,36.9096897,-77.2741121
Chestnut Horse,Aesculus hippocastanum,WA,King,341,https://www.americanforests.org?page_id=64557,https://www.americanforests.org/wp-content/plugins/bigtrees/view_image.php?area=web_pic&image_id=3883,47.4873376,-121.8622122
Redwood Dawn,Metesequoia glyptostroboides,NJ,Somerset,339,https://www.americanforests.org?page_id=60038,https://www.americanforests.org/wp-content/plugins/bigtrees/view_image.php?area=web_pic&image_id=6025,40.5675084,-74.6189556
Spruce Blue,Picea pungens,UT,Wasatch,339,https://www.americanforests.org?page_id=56025,https://www.americanforests.org/wp-content/plugins/bigtrees/view_image.php?area=web_pic&image_id=7550,40.3348338,-111.1186992
Magnolia Southern,Magnolia grandiflora,MS,George,339,https://www.americanforests.org?page_id=84978,https://www.americanforests.org/wp-content/plugins/bigtrees/view_image.php?area=web_pic&image_id=2238,30.857421,-88.6537118
Zelkova Japanese,Zelkova serrata,MD,Montgomery,337,https://www.americanforests.org?page_id=64566,https://www.americanforests.org/wp-content/plugins/bigtrees/NoImageAvailablePicture.jpg,39.1406267,-77.2075612
Tupelo Swamp,Nyssa biflora,VA,Chesapeake,336,https://www.americanforests.org?page_id=55408,https://www.americanforests.org/wp-content/plugins/bigtrees/view_image.php?area=web_pic&image_id=4980,36.7183708,-76.2466798
Oak Shingle,Quercus imbricaria,KY,Jefferson,336,https://www.americanforests.org?page_id=84921,https://www.americanforests.org/wp-content/plugins/bigtrees/view_image.php?area=web_pic&image_id=7929,38.1787175,-85.664528
India-almond ,Terminalia catappa,HI,Lihue,334,https://www.americanforests.org?page_id=84987,https://www.americanforests.org/wp-content/plugins/bigtrees/view_image.php?area=web_pic&image_id=1817,21.9769622,-159.3687721
Cypress Arizona smooth,Cupressus arizonica var. glabra,AZ,Yavapai,332,https://www.americanforests.org?page_id=64635,https://www.americanforests.org/wp-content/plugins/bigtrees/view_image.php?area=web_pic&image_id=4230,34.5668857,-112.5515965
Hickory Bitternut,Carya cordiformis,VA,Brunswick,332,https://www.americanforests.org?page_id=59996,https://www.americanforests.org/wp-content/plugins/bigtrees/NoImageAvailablePicture.jpg,34.0624283,-78.24434001566806
Tupelo Swamp,Nyssa biflora,VA,Suffolk,332,https://www.americanforests.org?page_id=84961,https://www.americanforests.org/wp-content/plugins/bigtrees/view_image.php?area=web_pic&image_id=4334,40.8832318,-72.8578027
Juniper Rocky mountain,Juniperus scopulorum,UT,Cache,331,https://www.americanforests.org?page_id=56125,https://www.americanforests.org/wp-content/plugins/bigtrees/view_image.php?area=web_pic&image_id=5950,41.7042978,-111.7451159
Oak Shingle,Quercus imbricaria,KY,Jefferson,331,https://www.americanforests.org?page_id=55372,https://www.americanforests.org/wp-content/plugins/bigtrees/NoImageAvailablePicture.jpg,38.1787175,-85.664528
Hickory Mockernut,Carya tomentosa,FL,Hamilton,330,https://www.americanforests.org?page_id=55676,https://www.americanforests.org/wp-content/plugins/bigtrees/view_image.php?area=web_pic&image_id=7630,30.5232289,-82.9763531
Oak Shingle,Quercus imbricaria,OH,Gallia,330,https://www.americanforests.org?page_id=55982,https://www.americanforests.org/wp-content/plugins/bigtrees/view_image.php?area=web_pic&image_id=5194,38.7952465,-82.3556216
Redcedar Eastern,Juniperus virginiana,GA,Coffee,329,https://www.americanforests.org?page_id=56032,https://www.americanforests.org/wp-content/plugins/bigtrees/view_image.php?area=web_pic&image_id=7792,31.5301809,-82.8405691
Hickory Shellbark,Carya laciniosa,VA,Culpeper,327,https://www.americanforests.org?page_id=64537,https://www.americanforests.org/wp-content/plugins/bigtrees/view_image.php?area=web_pic&image_id=4326,38.4912207,-77.9618216
Linden Littleleaf,Tilia cordata,MD,Harford,325,https://www.americanforests.org?page_id=64568,https://www.americanforests.org/wp-content/plugins/bigtrees/view_image.php?area=web_pic&image_id=6036,39.548545,-76.3048991
Coffeetree Kentucky,Gymnocladus dioicus,MD,Montgomery,323,https://www.americanforests.org?page_id=55722,https://www.americanforests.org/wp-content/plugins/bigtrees/view_image.php?area=web_pic&image_id=909,39.1406267,-77.2075612
Birch Yellow,Betula alleghaniensis,ME,Kennebec,321,https://www.americanforests.org?page_id=67150,https://www.americanforests.org/wp-content/plugins/bigtrees/NoImageAvailablePicture.jpg,44.4184616,-69.8250659
Yellowwood ,Cladrastis kentukea,NJ,Morris,321,https://www.americanforests.org?page_id=55739,https://www.americanforests.org/wp-content/plugins/bigtrees/view_image.php?area=web_pic&image_id=1443,40.8679538,-74.5601181
Pine Southwestern ponderosa,Pinus ponderosa var. brachytera,AZ,Coconino,320,https://www.americanforests.org?page_id=64536,https://www.americanforests.org/wp-content/plugins/bigtrees/NoImageAvailablePicture.jpg,35.9363252,-111.6948197
Hickory Common shagbark,Carya ovata,MD,Anne Arundel,320,https://www.americanforests.org?page_id=55643,https://www.americanforests.org/wp-content/plugins/bigtrees/view_image.php?area=web_pic&image_id=866,38.9722583,-76.573454
Ash Pumpkin,Fraxinus profunda,MO,Mississippi,320,https://www.americanforests.org?page_id=67935,https://www.americanforests.org/wp-content/plugins/bigtrees/view_image.php?area=web_pic&image_id=4602,36.837087,-89.3336141
Hickory Water,Carya aquatica,VA,Southampton,319,https://www.americanforests.org?page_id=55374,https://www.americanforests.org/wp-content/plugins/bigtrees/view_image.php?area=web_pic&image_id=7748,36.6959378,-77.1586002
Oak Sand live,Quercus geminata,FL,Alachua,317,https://www.americanforests.org?page_id=64588,https://www.americanforests.org/wp-content/plugins/bigtrees/view_image.php?area=web_pic&image_id=7913,29.675568,-82.3640109
Coffeetree Kentucky,Gymnocladus dioicus,MD,Washington,317,https://www.americanforests.org?page_id=85005,https://www.americanforests.org/wp-content/plugins/bigtrees/view_image.php?area=web_pic&image_id=5145,39.5893502,-77.710254
Ash Blue,Fraxinus quadrangulata,KY,Jefferson,315,https://www.americanforests.org?page_id=55636,https://www.americanforests.org/wp-content/plugins/bigtrees/view_image.php?area=web_pic&image_id=6092,38.1787175,-85.664528
Cherry Black,Prunus serotina,VA,Norfolk,314,https://www.americanforests.org?page_id=84970,https://www.americanforests.org/wp-content/plugins/bigtrees/view_image.php?area=web_pic&image_id=7903,42.1538607,-71.1828015
White-cedar Northern,Thuja occidentalis,VA,Nelson,312,https://www.americanforests.org?page_id=81980,https://www.americanforests.org/wp-content/plugins/bigtrees/NoImageAvailablePicture.jpg,37.8078463,-85.4741595
Boxelder ,Acer negundo,MD,Frederick,312,https://www.americanforests.org?page_id=67725,https://www.americanforests.org/wp-content/plugins/bigtrees/view_image.php?area=web_pic&image_id=4636,39.4608481,-77.4118135
Juniper Western,Juniperus occidentalis,OR,Lake,312,https://www.americanforests.org?page_id=56460,https://www.americanforests.org/wp-content/plugins/bigtrees/view_image.php?area=web_pic&image_id=6469,42.7702847,-120.4528326
Juniper Western,Juniperus occidentalis,OR,Lake,312,https://www.americanforests.org?page_id=56430,https://www.americanforests.org/wp-content/plugins/bigtrees/view_image.php?area=web_pic&image_id=7789,42.7702847,-120.4528326
Cottonwood Narrowleaf,Populus angustifolia,CO,Hinsdale,311,https://www.americanforests.org?page_id=55349,https://www.americanforests.org/wp-content/plugins/bigtrees/view_image.php?area=web_pic&image_id=7882,37.813681,-107.3304179
Boxelder ,Acer negundo,VA,Essex,307,https://www.americanforests.org?page_id=55376,https://www.americanforests.org/wp-content/plugins/bigtrees/NoImageAvailablePicture.jpg,44.0638879,-73.7542043
Fig Shortleaf,Ficus citrifolia,FL,Monroe,307,https://www.americanforests.org?page_id=56047,https://www.americanforests.org/wp-content/plugins/bigtrees/view_image.php?area=web_pic&image_id=7669,25.0405135,-80.8337157
Oak Pin,Quercus palustris,WV,Cabell,307,https://www.americanforests.org?page_id=81847,https://www.americanforests.org/wp-content/plugins/bigtrees/view_image.php?area=web_pic&image_id=5922,38.4200892,-82.2316907
Cottonwood Narrowleaf,Populus angustifolia,CO,Gunnison,306,https://www.americanforests.org?page_id=64770,https://www.americanforests.org/wp-content/plugins/bigtrees/view_image.php?area=web_pic&image_id=3068,38.6476702,-107.0603126
Cottonwood Narrowleaf,Populus angustifolia,MT,Sweet Grass,305,https://www.americanforests.org?page_id=60068,https://www.americanforests.org/wp-content/plugins/bigtrees/view_image.php?area=web_pic&image_id=2268,45.8729386,-109.9503947
Hickory Sand,Carya pallida,SC,Greenville,305,https://www.americanforests.org?page_id=55860,https://www.americanforests.org/wp-content/plugins/bigtrees/view_image.php?area=web_pic&image_id=2350,34.8550021,-82.3356457
Mulberry Texas,Morus microphylla,AZ,Yavapai,304,https://www.americanforests.org?page_id=60018,https://www.americanforests.org/wp-content/plugins/bigtrees/view_image.php?area=web_pic&image_id=5883,34.5668857,-112.5515965
Water-elm ,Planera aquatica,FL,Gilchrist,304,https://www.americanforests.org?page_id=55674,https://www.americanforests.org/wp-content/plugins/bigtrees/NoImageAvailablePicture.jpg,29.7131619,-82.7975172
Oak Arizona white,Quercus arizonica,AZ,Santa Cruz,303,https://www.americanforests.org?page_id=81834,https://www.americanforests.org/wp-content/plugins/bigtrees/NoImageAvailablePicture.jpg,31.5094579,-110.8476281
Pine Whitebark,Pinus albicaulis,CA,Mono,299,https://www.americanforests.org?page_id=64596,https://www.americanforests.org/wp-content/plugins/bigtrees/view_image.php?area=web_pic&image_id=6002,37.9533927,-118.9398758
Redcedar Southern,Juniperus virginiana var. silicicola,FL,Alachua,299,https://www.americanforests.org?page_id=55991,https://www.americanforests.org/wp-content/plugins/bigtrees/view_image.php?area=web_pic&image_id=5628,29.675568,-82.3640109
Camphor-tree ,Cinnamomum camphora,TX,Orange,297,https://www.americanforests.org?page_id=85004,https://www.americanforests.org/wp-content/plugins/bigtrees/view_image.php?area=web_pic&image_id=7620,30.1228634,-93.9041169
Elm Winged,Ulmus alata,VA,Hopewell,296,https://www.americanforests.org?page_id=55656,https://www.americanforests.org/wp-content/plugins/bigtrees/NoImageAvailablePicture.jpg,40.9847586,-89.4573128
Ash Berlandier,Fraxinus berlandieriana,TX,Cameron,296,https://www.americanforests.org?page_id=85019,https://www.americanforests.org/wp-content/plugins/bigtrees/view_image.php?area=web_pic&image_id=1127,26.1291189,-97.4134281
Basswood White,Tilia americana var. heterophylla,VA,Radford,296,https://www.americanforests.org?page_id=64539,https://www.americanforests.org/wp-content/plugins/bigtrees/view_image.php?area=web_pic&image_id=8008,51.9124128,-1.4069537
Pine Pitch,Pinus rigida,NH,Merrimack,295,https://www.americanforests.org?page_id=55942,https://www.americanforests.org/wp-content/plugins/bigtrees/view_image.php?area=web_pic&image_id=1426,43.3260376,-71.6854725
Elm Rock,Ulmus thomasii,MO,St. Louis,294,https://www.americanforests.org?page_id=81985,https://www.americanforests.org/wp-content/plugins/bigtrees/view_image.php?area=web_pic&image_id=4613,38.6398744,-90.51881277501238
Larch European,Larix decidua,CT,Fairfield,294,https://www.americanforests.org?page_id=55442,https://www.americanforests.org/wp-content/plugins/bigtrees/view_image.php?area=web_pic&image_id=4933,41.2943069,-73.37486
Oak Durand,Quercus sinuata var. sinuata,AL,Greene,294,https://www.americanforests.org?page_id=84917,https://www.americanforests.org/wp-content/plugins/bigtrees/view_image.php?area=web_pic&image_id=7952,39.3573664,-90.3898985
Spruce Red,Picea rubens,VA,Giles,292,https://www.americanforests.org?page_id=81947,https://www.americanforests.org/wp-content/plugins/bigtrees/NoImageAvailablePicture.jpg,37.3088528,-80.7098781
Maple Norway,Acer platanoides,MT,Ravalli,288,https://www.americanforests.org?page_id=64589,https://www.americanforests.org/wp-content/plugins/bigtrees/view_image.php?area=web_pic&image_id=7723,46.0757223,-114.1139453
Oak Emory,Quercus emoryi,NM,Grant,288,https://www.americanforests.org?page_id=64562,https://www.americanforests.org/wp-content/plugins/bigtrees/NoImageAvailablePicture.jpg,32.7548776,-108.3634144
Oak Texas red,Quercus texana,MO,Dunklin,288,https://www.americanforests.org?page_id=81860,https://www.americanforests.org/wp-content/plugins/bigtrees/NoImageAvailablePicture.jpg,36.2156534,-90.0591292
Paulownia Royal,Paulownia tomentosa,VA,Arlington,286,https://www.americanforests.org?page_id=81505,https://www.americanforests.org/wp-content/plugins/bigtrees/view_image.php?area=web_pic&image_id=5053,38.8769326,-77.0893094
Fir Bristlecone,Abies bracteata,CA,Monterey,286,https://www.americanforests.org?page_id=57968,https://www.americanforests.org/wp-content/plugins/bigtrees/view_image.php?area=web_pic&image_id=193,36.2231079,-121.3877428
Pine Shore,Pinus contorta,WA,Snohomish,286,https://www.americanforests.org?page_id=64661,https://www.americanforests.org/wp-content/plugins/bigtrees/view_image.php?area=web_pic&image_id=3543,48.0074736,-121.7304882
Tupelo Ogeechee,Nyssa ogeche,FL,Wakulla,284,https://www.americanforests.org?page_id=55403,https://www.americanforests.org/wp-content/plugins/bigtrees/view_image.php?area=web_pic&image_id=7832,30.1480038,-84.3543512
Oak Texas red,Quercus texana,KS,Shawnee,284,https://www.americanforests.org?page_id=60011,https://www.americanforests.org/wp-content/plugins/bigtrees/view_image.php?area=web_pic&image_id=3196,39.0273676,-95.7627535
Birch River,Betula nigra,KY,Perry,282,https://www.americanforests.org?page_id=60026,https://www.americanforests.org/wp-content/plugins/bigtrees/NoImageAvailablePicture.jpg,37.2203608,-83.1640699
Button-mangrove ,Conocarpus erectus,FL,Monroe,281,https://www.americanforests.org?page_id=55679,https://www.americanforests.org/wp-content/plugins/bigtrees/view_image.php?area=web_pic&image_id=5749,25.0405135,-80.8337157
Oak Gray,Quercus grisea,NM,Hidalgo,281,https://www.americanforests.org?page_id=64563,https://www.americanforests.org/wp-content/plugins/bigtrees/NoImageAvailablePicture.jpg,31.801493,-108.7598468
Maple Canyon,Acer grandidentatum,AZ,Coconino,281,https://www.americanforests.org?page_id=85011,https://www.americanforests.org/wp-content/plugins/bigtrees/NoImageAvailablePicture.jpg,35.9363252,-111.6948197
Cottonwood Swamp,Populus heterophylla,MO,Dunklin,281,https://www.americanforests.org?page_id=81819,https://www.americanforests.org/wp-content/plugins/bigtrees/NoImageAvailablePicture.jpg,36.2156534,-90.0591292
Alder Red,Alnus rubra,OR,Benton,280,https://www.americanforests.org?page_id=56376,https://www.americanforests.org/wp-content/plugins/bigtrees/view_image.php?area=web_pic&image_id=7726,44.494937,-123.4065679
Maple Black,Acer nigrum,ME,York,280,https://www.americanforests.org?page_id=64571,https://www.americanforests.org/wp-content/plugins/bigtrees/view_image.php?area=web_pic&image_id=7722,43.4229305,-70.6546639
Poinciana Royal,Delonix regia,FL,Hendry,279,https://www.americanforests.org?page_id=56100,https://www.americanforests.org/wp-content/plugins/bigtrees/view_image.php?area=web_pic&image_id=478,26.597094,-81.1520667
Hickory Red,Carya ovalis,VA,Caroline,278,https://www.americanforests.org?page_id=84907,https://www.americanforests.org/wp-content/plugins/bigtrees/view_image.php?area=web_pic&image_id=7605,38.0320305,-77.362363
Fir Balsam,Abies balsamea,PA,Adams,277,https://www.americanforests.org?page_id=56018,https://www.americanforests.org/wp-content/plugins/bigtrees/view_image.php?area=web_pic&image_id=8215,39.8708972,-77.2395963
Maple Florida,Acer barbatum,VA,Southampton,277,https://www.americanforests.org?page_id=64538,https://www.americanforests.org/wp-content/plugins/bigtrees/view_image.php?area=web_pic&image_id=4914,36.6959378,-77.1586002
Pine Apache,Pinus engelmannii,AZ,Cochise,276,https://www.americanforests.org?page_id=81509,https://www.americanforests.org/wp-content/plugins/bigtrees/view_image.php?area=web_pic&image_id=4246,31.8514532,-109.8181858
White-cedar Atlantic,Chamaecyparis thyoides,OH,Muskingum,275,https://www.americanforests.org?page_id=82000,https://www.americanforests.org/wp-content/plugins/bigtrees/view_image.php?area=web_pic&image_id=5849,40.0064162,-81.9984697
Oak Bluff,Quercus austrina,FL,Wakulla,275,https://www.americanforests.org?page_id=55673,https://www.americanforests.org/wp-content/plugins/bigtrees/NoImageAvailablePicture.jpg,30.1480038,-84.3543512
Mahogany West indian,Swietenia mahagoni,FL,Broward,275,https://www.americanforests.org?page_id=64599,https://www.americanforests.org/wp-content/plugins/bigtrees/view_image.php?area=web_pic&image_id=1886,26.1598074,-80.4623642
Buckeye Ohio,Aesculus glabra,KY,Fayette,274,https://www.americanforests.org?page_id=60063,https://www.americanforests.org/wp-content/plugins/bigtrees/view_image.php?area=web_pic&image_id=6133,38.0280648,-84.4722444
Buckeye Ohio,Aesculus glabra,IL,DuPage,274,https://www.americanforests.org?page_id=85012,https://www.americanforests.org/wp-content/plugins/bigtrees/view_image.php?area=web_pic&image_id=7575,41.8603735,-88.0906873
Pine Arizona,Pinus arizonica,AZ,Pima,273,https://www.americanforests.org?page_id=55949,https://www.americanforests.org/wp-content/plugins/bigtrees/view_image.php?area=web_pic&image_id=4221,32.1112624,-111.6546163
Oak Gambel,Quercus gambelii,AZ,Coconino,272,https://www.americanforests.org?page_id=55896,https://www.americanforests.org/wp-content/plugins/bigtrees/NoImageAvailablePicture.jpg,35.9363252,-111.6948197
Oak Sand post,Quercus stellata var. margarettae,TX,Red River,269,https://www.americanforests.org?page_id=64610,https://www.americanforests.org/wp-content/plugins/bigtrees/NoImageAvailablePicture.jpg,33.571979,-95.0429674
Mahogany West indian,Swietenia mahagoni,FL,Monroe,267,https://www.americanforests.org?page_id=64644,https://www.americanforests.org/wp-content/plugins/bigtrees/view_image.php?area=web_pic&image_id=6527,25.0405135,-80.8337157
Pine Austrian,Pinus nigra,WA,King,266,https://www.americanforests.org?page_id=64657,https://www.americanforests.org/wp-content/plugins/bigtrees/view_image.php?area=web_pic&image_id=3592,47.4873376,-121.8622122
Pine Spruce,Pinus glabra,FL,Alachua,266,https://www.americanforests.org?page_id=84973,https://www.americanforests.org/wp-content/plugins/bigtrees/view_image.php?area=web_pic&image_id=7861,29.675568,-82.3640109
Ash Carolina,Fraxinus caroliniana,FL,Lake,263,https://www.americanforests.org?page_id=55394,https://www.americanforests.org/wp-content/plugins/bigtrees/NoImageAvailablePicture.jpg,28.7006859,-81.78994
Pine Shortleaf,Pinus echinata,TX,Smith,262,https://www.americanforests.org?page_id=55760,https://www.americanforests.org/wp-content/plugins/bigtrees/view_image.php?area=web_pic&image_id=5923,32.3402898,-95.2563971
Holly American,Ilex opaca,AR,White,262,https://www.americanforests.org?page_id=64565,https://www.americanforests.org/wp-content/plugins/bigtrees/view_image.php?area=web_pic&image_id=7782,35.2463042,-91.7169687
Basswood Carolina,Tilia americana var. caroliniana,FL,Wakulla,261,https://www.americanforests.org?page_id=55692,https://www.americanforests.org/wp-content/plugins/bigtrees/view_image.php?area=web_pic&image_id=8006,30.1480038,-84.3543512
Tamarind ,Tamarindus indica,FL,Monroe,261,https://www.americanforests.org?page_id=56054,https://www.americanforests.org/wp-content/plugins/bigtrees/view_image.php?area=web_pic&image_id=3573,25.0405135,-80.8337157
Mesquite Honey,Prosopis glandulosa,TX,Real,261,https://www.americanforests.org?page_id=56063,https://www.americanforests.org/wp-content/plugins/bigtrees/view_image.php?area=web_pic&image_id=6046,29.7949383,-99.8280905
Pine Longleaf,Pinus palustris,SC,Aiken,259,https://www.americanforests.org?page_id=81814,https://www.americanforests.org/wp-content/plugins/bigtrees/view_image.php?area=web_pic&image_id=3497,33.5723191,-81.6182086
Ironwood Desert,Olneya tesota,AZ,Maricopa,257,https://www.americanforests.org?page_id=55576,https://www.americanforests.org/wp-content/plugins/bigtrees/view_image.php?area=web_pic&image_id=2482,33.34883,-112.49123
Pine Rocky mountain lodgepole,Pinus contorta var. latifolia,OR,Grant,257,https://www.americanforests.org?page_id=60091,https://www.americanforests.org/wp-content/plugins/bigtrees/view_image.php?area=web_pic&image_id=3350,44.464824,-119.0565278
Mesquite Velvet,Prosopis velutina,AZ,Santa Cruz,257,https://www.americanforests.org?page_id=56119,https://www.americanforests.org/wp-content/plugins/bigtrees/view_image.php?area=web_pic&image_id=5569,31.5094579,-110.8476281
Persimmon Common,Diospyros virginiana,OH,Scioto,256,https://www.americanforests.org?page_id=55926,https://www.americanforests.org/wp-content/plugins/bigtrees/NoImageAvailablePicture.jpg,38.823448,-83.017141
Juniper Utah,Juniperus osteosperma,AZ,Mohave,256,https://www.americanforests.org?page_id=84950,https://www.americanforests.org/wp-content/plugins/bigtrees/view_image.php?area=web_pic&image_id=7790,35.7218038,-113.8271174
Oak Engelmann,Quercus engelmannii,CA,Los Angeles,255,https://www.americanforests.org?page_id=56118,https://www.americanforests.org/wp-content/plugins/bigtrees/view_image.php?area=web_pic&image_id=5988,34.3155072,-118.2096814
Blackbead Texas ebony,Ebenopsis ebano,TX,Hidalgo,255,https://www.americanforests.org?page_id=56019,https://www.americanforests.org/wp-content/plugins/bigtrees/view_image.php?area=web_pic&image_id=7653,26.3530256,-98.216445
Cherry Common chokecherry,Prunus virginiana,MD,Baltimore,254,https://www.americanforests.org?page_id=57972,https://www.americanforests.org/wp-content/plugins/bigtrees/NoImageAvailablePicture.jpg,39.4445243,-76.6483482
Hornbeam American,Carpinus caroliniana,NJ,Essex,254,https://www.americanforests.org?page_id=84969,https://www.americanforests.org/wp-content/plugins/bigtrees/NoImageAvailablePicture.jpg,40.7913922,-74.2479444
Persimmon Common,Diospyros virginiana,VA,Suffolk,254,https://www.americanforests.org?page_id=60062,https://www.americanforests.org/wp-content/plugins/bigtrees/NoImageAvailablePicture.jpg,40.8832318,-72.8578027
Magnolia Sweetbay,Magnolia virginiana,FL,Jefferson,253,https://www.americanforests.org?page_id=64586,https://www.americanforests.org/wp-content/plugins/bigtrees/NoImageAvailablePicture.jpg,30.3949531,-83.9326576
Torreya California,Torreya californica,CA,Santa Cruz,253,https://www.americanforests.org?page_id=55334,https://www.americanforests.org/wp-content/plugins/bigtrees/view_image.php?area=web_pic&image_id=5718,37.050096,-121.9905908
Lysiloma Bahama,Lysiloma latisiliquum,FL,Miami-Dade,253,https://www.americanforests.org?page_id=55890,https://www.americanforests.org/wp-content/plugins/bigtrees/view_image.php?area=web_pic&image_id=7798,25.6364246,-80.4989467
Chinaberry ,Melia azedarach,VA,Petersburg,251,https://www.americanforests.org?page_id=67345,https://www.americanforests.org/wp-content/plugins/bigtrees/view_image.php?area=web_pic&image_id=5925,59.938732,30.316229
Yew Pacific,Taxus brevifolia,WA,Lewis,250,https://www.americanforests.org?page_id=56115,https://www.americanforests.org/wp-content/plugins/bigtrees/NoImageAvailablePicture.jpg,46.5612011,-122.4225561
Elm Cedar,Ulmus crassifolia,MO,Butler,249,https://www.americanforests.org?page_id=81982,https://www.americanforests.org/wp-content/plugins/bigtrees/NoImageAvailablePicture.jpg,36.7151346,-90.4146358
Soapberry Wingleaf,Sapindus saponaria,HI,HawaiÊ»i,249,https://www.americanforests.org?page_id=60000,https://www.americanforests.org/wp-content/plugins/bigtrees/NoImageAvailablePicture.jpg,19.6273325,-155.5645619
Desert-willow ,Chilopsis linearis,AZ,Gila,247,https://www.americanforests.org?page_id=56085,https://www.americanforests.org/wp-content/plugins/bigtrees/view_image.php?area=web_pic&image_id=5887,33.74135485,-110.68128894247536
Nestegis Hawaiï¿½i olive,Nestegis sandwicensis,HI,HawaiÊ»i,247,https://www.americanforests.org?page_id=82094,https://www.americanforests.org/wp-content/plugins/bigtrees/NoImageAvailablePicture.jpg,19.6273325,-155.5645619
Hickory Carolina,Carya carolinae-septentrionalis,AL,Wilcox,247,https://www.americanforests.org?page_id=55325,https://www.americanforests.org/wp-content/plugins/bigtrees/view_image.php?area=web_pic&image_id=2155,31.9523021,-87.3005169
Pine Colorado bristlecone,Pinus aristata,CO,Huerfano,243,https://www.americanforests.org?page_id=64553,https://www.americanforests.org/wp-content/plugins/bigtrees/NoImageAvailablePicture.jpg,37.7013983,-105.0218531
Pine Scotch,Pinus sylvestris,IL,DuPage,241,https://www.americanforests.org?page_id=81813,https://www.americanforests.org/wp-content/plugins/bigtrees/view_image.php?area=web_pic&image_id=2012,41.8603735,-88.0906873
Ash Black,Fraxinus nigra,NJ,Monmouth,241,https://www.americanforests.org?page_id=60040,https://www.americanforests.org/wp-content/plugins/bigtrees/view_image.php?area=web_pic&image_id=5753,40.2932319,-74.1671114
Aspen Bigtooth,Populus grandidentata,MN,Pine,241,https://www.americanforests.org?page_id=64551,https://www.americanforests.org/wp-content/plugins/bigtrees/view_image.php?area=web_pic&image_id=3889,46.0820957,-92.7542126
Bucida ,Bucida buceras,FL,Miami-Dade,240,https://www.americanforests.org?page_id=55965,https://www.americanforests.org/wp-content/plugins/bigtrees/view_image.php?area=web_pic&image_id=7596,25.6364246,-80.4989467
Aspen Bigtooth,Populus grandidentata,PA,McKean,239,https://www.americanforests.org?page_id=84916,https://www.americanforests.org/wp-content/plugins/bigtrees/view_image.php?area=web_pic&image_id=7885,41.8019737,-78.5769879
Maple Trilobum red,Acer rubrum var. trilobum,VA,Isle of Wight,238,https://www.americanforests.org?page_id=60069,https://www.americanforests.org/wp-content/plugins/bigtrees/NoImageAvailablePicture.jpg,36.8953677,-76.7248143
Coralbean Wili wili,Erythrina sandwicensis,HI,HawaiÊ»i,238,https://www.americanforests.org?page_id=55350,https://www.americanforests.org/wp-content/plugins/bigtrees/view_image.php?area=web_pic&image_id=2009,19.6273325,-155.5645619
Buckeye California,Aesculus californica,CA,Santa Cruz,237,https://www.americanforests.org?page_id=57970,https://www.americanforests.org/wp-content/plugins/bigtrees/view_image.php?area=web_pic&image_id=5651,37.050096,-121.9905908
Oak Delta post,Quercus similis,TX,Red River,234,https://www.americanforests.org?page_id=81851,https://www.americanforests.org/wp-content/plugins/bigtrees/NoImageAvailablePicture.jpg,33.571979,-95.0429674
Tamarack ,Larix laricina,MN,Crow Wing,234,https://www.americanforests.org?page_id=60013,https://www.americanforests.org/wp-content/plugins/bigtrees/view_image.php?area=web_pic&image_id=7793,46.4665237,-94.1017044
Oak Blue,Quercus douglasii,CA,Mariposa,232,https://www.americanforests.org?page_id=81837,https://www.americanforests.org/wp-content/plugins/bigtrees/view_image.php?area=web_pic&image_id=6549,37.570148,-119.9036592
Hazelnut Turkish,Corylus colurna,OR,Benton,232,https://www.americanforests.org?page_id=56370,https://www.americanforests.org/wp-content/plugins/bigtrees/NoImageAvailablePicture.jpg,44.494937,-123.4065679
Apple Common,Malus sylvestris,ME,Cumberland,232,https://www.americanforests.org?page_id=60064,https://www.americanforests.org/wp-content/plugins/bigtrees/view_image.php?area=web_pic&image_id=5809,43.8506432,-70.4001498
Silverbell Mountain,Halesia tetraptera,TN,Sevier,230,https://www.americanforests.org?page_id=56386,https://www.americanforests.org/wp-content/plugins/bigtrees/NoImageAvailablePicture.jpg,35.8047065,-83.5291901
Hickory Black,Carya texana,TX,San Jacinto,229,https://www.americanforests.org?page_id=55466,https://www.americanforests.org/wp-content/plugins/bigtrees/view_image.php?area=web_pic&image_id=1349,30.5083577,-95.1902362
Oak Blackjack,Quercus marilandica,NC,Chatham,229,https://www.americanforests.org?page_id=55367,https://www.americanforests.org/wp-content/plugins/bigtrees/view_image.php?area=web_pic&image_id=5763,35.7151316,-79.2533035
Hickory Black,Carya texana,MO,Butler,229,https://www.americanforests.org?page_id=67746,https://www.americanforests.org/wp-content/plugins/bigtrees/view_image.php?area=web_pic&image_id=7606,36.7151346,-90.4146358
Willow Scouler,Salix scouleriana,OR,Columbia,228,https://www.americanforests.org?page_id=55332,https://www.americanforests.org/wp-content/plugins/bigtrees/NoImageAvailablePicture.jpg,45.9280203,-123.082293
Pine Pond,Pinus serotina,VA,Virginia Beach,228,https://www.americanforests.org?page_id=60033,https://www.americanforests.org/wp-content/plugins/bigtrees/view_image.php?area=web_pic&image_id=4990,36.8529841,-75.9774183
Pine Pinyon (two-leaf),Pinus edulis,NM,Santa Fe,228,https://www.americanforests.org?page_id=64572,https://www.americanforests.org/wp-content/plugins/bigtrees/view_image.php?area=web_pic&image_id=3153,35.4859674,-106.0135507
Magnolia Fraser,Magnolia fraseri,VA,Carroll,225,https://www.americanforests.org?page_id=67344,https://www.americanforests.org/wp-content/plugins/bigtrees/NoImageAvailablePicture.jpg,42.0647352,-89.9556785
Oak Mexican blue,Quercus oblongifolia,NM,Lincoln,223,https://www.americanforests.org?page_id=64558,https://www.americanforests.org/wp-content/plugins/bigtrees/NoImageAvailablePicture.jpg,33.7525727,-105.4158806
Madrone Texas,Arbutus xalapensis,TX,Brewster,223,https://www.americanforests.org?page_id=60077,https://www.americanforests.org/wp-content/plugins/bigtrees/NoImageAvailablePicture.jpg,29.8462742,-103.2400734
Fir Fraser,Abies fraseri,VA,Harrisonburg,223,https://www.americanforests.org?page_id=55639,https://www.americanforests.org/wp-content/plugins/bigtrees/view_image.php?area=web_pic&image_id=6370,38.4493315,-78.8688833
Waterlocust ,Gleditsia aquatica,PA,Montgomery,222,https://www.americanforests.org?page_id=85022,https://www.americanforests.org/wp-content/plugins/bigtrees/view_image.php?area=web_pic&image_id=7682,40.2154361,-75.3702305
Pine Chihuahua,Pinus leiophylla var. chihuahuana,AZ,Apache,221,https://www.americanforests.org?page_id=55484,https://www.americanforests.org/wp-content/plugins/bigtrees/NoImageAvailablePicture.jpg,35.214632,-109.4786676
Birch European white,Betula pendula,OR,Clackamas,219,https://www.americanforests.org?page_id=56417,https://www.americanforests.org/wp-content/plugins/bigtrees/view_image.php?area=web_pic&image_id=2723,45.1608821,-122.2305038
Birch Paper,Betula papyrifera,NH,Cheshire,219,https://www.americanforests.org?page_id=67744,https://www.americanforests.org/wp-content/plugins/bigtrees/view_image.php?area=web_pic&image_id=4010,42.9525022,-72.2834412
Sourwood ,Oxydendrum arboreum,VA,Amelia,216,https://www.americanforests.org?page_id=85017,https://www.americanforests.org/wp-content/plugins/bigtrees/view_image.php?area=web_pic&image_id=7834,37.3319664,-78.008448
Cherry Southwestern black,Prunus serotina var. rufula,AZ,Yavapai,215,https://www.americanforests.org?page_id=55884,https://www.americanforests.org/wp-content/plugins/bigtrees/view_image.php?area=web_pic&image_id=3941,34.5668857,-112.5515965
Magnolia Umbrella,Magnolia tripetala,CT,New Haven,214,https://www.americanforests.org?page_id=55405,https://www.americanforests.org/wp-content/plugins/bigtrees/NoImageAvailablePicture.jpg,41.4082,-72.9330283
Silverbell Carolina,Halesia carolina,NH,Cheshire,214,https://www.americanforests.org?page_id=84986,https://www.americanforests.org/wp-content/plugins/bigtrees/view_image.php?area=web_pic&image_id=7685,42.9525022,-72.2834412
Acacia ,Washingtonia filifera,CA,Sacramento,213,https://www.americanforests.org?page_id=56026,https://www.americanforests.org/wp-content/plugins/bigtrees/view_image.php?area=web_pic&image_id=6116,38.4732259,-121.2980707
Paper-mulberry ,Broussonetia papyrifera,VA,Williamsburg,212,https://www.americanforests.org?page_id=67743,https://www.americanforests.org/wp-content/plugins/bigtrees/view_image.php?area=web_pic&image_id=4928,33.6442699,-79.7442135
Spruce White,Picea glauca,NH,Coos,211,https://www.americanforests.org?page_id=81507,https://www.americanforests.org/wp-content/plugins/bigtrees/view_image.php?area=web_pic&image_id=1141,44.698627,-71.3768039
Bay Red,Persea borbonia,TX,Montgomery,211,https://www.americanforests.org?page_id=84910,https://www.americanforests.org/wp-content/plugins/bigtrees/NoImageAvailablePicture.jpg,30.301949,-95.5065944
Pine Virginia,Pinus virginiana,VA,Fairfax,210,https://www.americanforests.org?page_id=59991,https://www.americanforests.org/wp-content/plugins/bigtrees/NoImageAvailablePicture.jpg,38.8156356,-77.2836849
Acacia ,Washingtonia filifera,CA,Sacramento,209,https://www.americanforests.org?page_id=81993,https://www.americanforests.org/wp-content/plugins/bigtrees/NoImageAvailablePicture.jpg,38.4732259,-121.2980707
Birch Alaska paper,Betula neoalaskana,AK,Matanuska-Susitna,207,https://www.americanforests.org?page_id=55386,https://www.americanforests.org/wp-content/plugins/bigtrees/NoImageAvailablePicture.jpg,62.3402481,-149.4793288
Hickory Nutmeg,Carya myristiciformis,TX,Red River,207,https://www.americanforests.org?page_id=55477,https://www.americanforests.org/wp-content/plugins/bigtrees/view_image.php?area=web_pic&image_id=1556,33.571979,-95.0429674
Anacua ,Ehretia anacua,TX,Kenedy,207,https://www.americanforests.org?page_id=55412,https://www.americanforests.org/wp-content/plugins/bigtrees/view_image.php?area=web_pic&image_id=7655,27.022355,-97.46357515860103
False-mastic ,Sideroxylon foetidissimum,FL,Miami-Dade,207,https://www.americanforests.org?page_id=56096,https://www.americanforests.org/wp-content/plugins/bigtrees/view_image.php?area=web_pic&image_id=7981,25.6364246,-80.4989467
Cypress Piute,Cupressus arizonica ssp. nevadensis,CA,Kern,206,https://www.americanforests.org?page_id=60052,https://www.americanforests.org/wp-content/plugins/bigtrees/view_image.php?area=web_pic&image_id=8040,35.3145701,-118.7538222
Anacua ,Ehretia anacua,TX,DeWitt,204,https://www.americanforests.org?page_id=55813,https://www.americanforests.org/wp-content/plugins/bigtrees/view_image.php?area=web_pic&image_id=7656,29.0931328,-97.3158457
Bay Swamp,Persea palustris,VA,Virginia Beach,204,https://www.americanforests.org?page_id=81506,https://www.americanforests.org/wp-content/plugins/bigtrees/NoImageAvailablePicture.jpg,36.8529841,-75.9774183
Fig Florida strangler,Ficus aurea,FL,Miami-Dade,203,https://www.americanforests.org?page_id=84934,https://www.americanforests.org/wp-content/plugins/bigtrees/view_image.php?area=web_pic&image_id=7668,25.6364246,-80.4989467
Pine Red,Pinus resinosa,NH,Carroll,203,https://www.americanforests.org?page_id=84951,https://www.americanforests.org/wp-content/plugins/bigtrees/view_image.php?area=web_pic&image_id=7871,43.8778199,-71.2740836
Fishpoison-tree Florida,Piscidia piscipula,FL,Monroe,203,https://www.americanforests.org?page_id=55747,https://www.americanforests.org/wp-content/plugins/bigtrees/view_image.php?area=web_pic&image_id=5751,25.0405135,-80.8337157
Elm September,Ulmus serotina,OH,Hamilton,201,https://www.americanforests.org?page_id=64623,https://www.americanforests.org/wp-content/plugins/bigtrees/view_image.php?area=web_pic&image_id=379,39.2085354,-84.5501874
Arborvitae Oriental,Platycladus orientalis,OK,Grant,201,https://www.americanforests.org?page_id=64546,https://www.americanforests.org/wp-content/plugins/bigtrees/view_image.php?area=web_pic&image_id=4396,36.7888817,-97.7824914
Oak Turkey,Quercus laevis,NC,Moore,200,https://www.americanforests.org?page_id=64582,https://www.americanforests.org/wp-content/plugins/bigtrees/view_image.php?area=web_pic&image_id=5584,35.3054614,-79.4761236
Willow Pacific,Salix lucida ssp. lasiandra,CA,Marin,199,https://www.americanforests.org?page_id=84982,https://www.americanforests.org/wp-content/plugins/bigtrees/view_image.php?area=web_pic&image_id=6565,38.0409144,-122.6199638
Hackberry Netleaf,Celtis reticulata,AZ,Gila,199,https://www.americanforests.org?page_id=84957,https://www.americanforests.org/wp-content/plugins/bigtrees/view_image.php?area=web_pic&image_id=5171,33.74135485,-110.68128894247536
Cherry Sweet,Prunus avium,VA,Orange,197,https://www.americanforests.org?page_id=84971,https://www.americanforests.org/wp-content/plugins/bigtrees/view_image.php?area=web_pic&image_id=7898,33.7500378,-117.8704931
Maple Rocky mountain,Acer glabrum,WA,Island,196,https://www.americanforests.org?page_id=55969,https://www.americanforests.org/wp-content/plugins/bigtrees/view_image.php?area=web_pic&image_id=5224,48.2162669,-122.6842402
Pine Fallax pinyon,Pinus monophylla var. fallax,AZ,Yavapai,196,https://www.americanforests.org?page_id=55783,https://www.americanforests.org/wp-content/plugins/bigtrees/view_image.php?area=web_pic&image_id=7865,34.5668857,-112.5515965
Smoketree American,Cotinus obovatus,CT,Windham,195,https://www.americanforests.org?page_id=64605,https://www.americanforests.org/wp-content/plugins/bigtrees/view_image.php?area=web_pic&image_id=7635,41.8208345,-72.0051201
Oak Turkey,Quercus laevis,GA,Richmond,195,https://www.americanforests.org?page_id=64576,https://www.americanforests.org/wp-content/plugins/bigtrees/NoImageAvailablePicture.jpg,40.564209,-74.12530461995391
Serviceberry Allegheny,Amelanchier laevis,VA,Smyth,194,https://www.americanforests.org?page_id=84983,https://www.americanforests.org/wp-content/plugins/bigtrees/NoImageAvailablePicture.jpg,36.8440149,-81.5418453
Juniper Ashe,Juniperus ashei,TX,Comal,194,https://www.americanforests.org?page_id=64638,https://www.americanforests.org/wp-content/plugins/bigtrees/view_image.php?area=web_pic&image_id=7787,29.7979704,-98.2690787
Oak Lacey,Quercus laceyi,TX,Comal,193,https://www.americanforests.org?page_id=56040,https://www.americanforests.org/wp-content/plugins/bigtrees/view_image.php?area=web_pic&image_id=1162,29.7979704,-98.2690787
Juniper California,Juniperus californica,AZ,Yavapai,193,https://www.americanforests.org?page_id=85002,https://www.americanforests.org/wp-content/plugins/bigtrees/view_image.php?area=web_pic&image_id=267,34.5668857,-112.5515965
Oak Robust,Quercus robusta,TX,Jeff Davis,192,https://www.americanforests.org?page_id=81848,https://www.americanforests.org/wp-content/plugins/bigtrees/NoImageAvailablePicture.jpg,30.7018281,-104.1501698
Pisonia ,Pisonia brunoniana,HI,HawaiÊ»i,191,https://www.americanforests.org?page_id=60008,https://www.americanforests.org/wp-content/plugins/bigtrees/NoImageAvailablePicture.jpg,19.6273325,-155.5645619
Oak Bigelow,Quercus sinuata var. breviloba,TX,Travis,190,https://www.americanforests.org?page_id=55801,https://www.americanforests.org/wp-content/plugins/bigtrees/view_image.php?area=web_pic&image_id=7951,30.2878569,-97.7561392
Pine Sand,Pinus clausa,FL,Alachua,188,https://www.americanforests.org?page_id=55565,https://www.americanforests.org/wp-content/plugins/bigtrees/view_image.php?area=web_pic&image_id=7853,29.675568,-82.3640109
Aspen Quaking,Populus tremuloides,NH,Coos,188,https://www.americanforests.org?page_id=84994,https://www.americanforests.org/wp-content/plugins/bigtrees/view_image.php?area=web_pic&image_id=7886,44.698627,-71.3768039
Pine Sand,Pinus clausa,FL,Osceola,184,https://www.americanforests.org?page_id=55450,https://www.americanforests.org/wp-content/plugins/bigtrees/view_image.php?area=web_pic&image_id=1509,28.0443842,-81.1437541
Juniper Redberry,Juniperus coahuilensis,TX,Brewster,181,https://www.americanforests.org?page_id=64556,https://www.americanforests.org/wp-content/plugins/bigtrees/NoImageAvailablePicture.jpg,29.8462742,-103.2400734
Oak Netleaf white,Quercus polymorpha,TX,Val Verde,179,https://www.americanforests.org?page_id=55648,https://www.americanforests.org/wp-content/plugins/bigtrees/NoImageAvailablePicture.jpg,29.9153286,-101.1284631
Redbud Eastern,Cercis canadensis,VA,Loudoun,177,https://www.americanforests.org?page_id=64581,https://www.americanforests.org/wp-content/plugins/bigtrees/view_image.php?area=web_pic&image_id=4937,39.0984586,-77.6705008
Willow Peachleaf,Salix amygdaloides,MT,Stillwater,176,https://www.americanforests.org?page_id=56419,https://www.americanforests.org/wp-content/plugins/bigtrees/NoImageAvailablePicture.jpg,45.6540259,-109.3579352
Madrone Arizona,Arbutus arizonica,AZ,Santa Cruz,175,https://www.americanforests.org?page_id=55554,https://www.americanforests.org/wp-content/plugins/bigtrees/view_image.php?area=web_pic&image_id=7589,31.5094579,-110.8476281
Lilac Japanese tree,Syringa reticulata,VA,Richmond,175,https://www.americanforests.org?page_id=64541,https://www.americanforests.org/wp-content/plugins/bigtrees/view_image.php?area=web_pic&image_id=7990,40.564209,-74.12530461995391
Magnolia Bigleaf,Magnolia macrophylla,MD,Baltimore,174,https://www.americanforests.org?page_id=55600,https://www.americanforests.org/wp-content/plugins/bigtrees/view_image.php?area=web_pic&image_id=1120,39.4445243,-76.6483482
Hawthorn Downy,Crataegus mollis,OH,Madison,173,https://www.americanforests.org?page_id=55661,https://www.americanforests.org/wp-content/plugins/bigtrees/view_image.php?area=web_pic&image_id=709,39.8868227,-83.3937233
Oak Graves,Quercus gravesii,TX,Brewster,173,https://www.americanforests.org?page_id=81838,https://www.americanforests.org/wp-content/plugins/bigtrees/NoImageAvailablePicture.jpg,29.8462742,-103.2400734
Cherry Escarpment,Prunus serotina var. eximia,TX,Real,172,https://www.americanforests.org?page_id=55895,https://www.americanforests.org/wp-content/plugins/bigtrees/NoImageAvailablePicture.jpg,29.7949383,-99.8280905
Willow Peachleaf,Salix amygdaloides,MT,Yellowstone,172,https://www.americanforests.org?page_id=60042,https://www.americanforests.org/wp-content/plugins/bigtrees/NoImageAvailablePicture.jpg,45.9645464,-108.276076
Pine Table mountain,Pinus pungens,WV,Hardy,170,https://www.americanforests.org?page_id=56429,https://www.americanforests.org/wp-content/plugins/bigtrees/view_image.php?area=web_pic&image_id=7870,39.0040008,-78.8441276
Elder Blue,Sambucus cerulea,OR,Linn,170,https://www.americanforests.org?page_id=56374,https://www.americanforests.org/wp-content/plugins/bigtrees/NoImageAvailablePicture.jpg,44.4968904,-122.5485977
Anacahuita ,Cordia boissieri,TX,Cameron,170,https://www.americanforests.org?page_id=67786,https://www.americanforests.org/wp-content/plugins/bigtrees/view_image.php?area=web_pic&image_id=5916,26.1291189,-97.4134281
Spruce Black,Picea mariana,ME,Hancock,170,https://www.americanforests.org?page_id=64615,https://www.americanforests.org/wp-content/plugins/bigtrees/view_image.php?area=web_pic&image_id=5804,44.7135397,-68.2994753
Oak Bluejack,Quercus incana,TX,Smith,170,https://www.americanforests.org?page_id=60057,https://www.americanforests.org/wp-content/plugins/bigtrees/NoImageAvailablePicture.jpg,32.3402898,-95.2563971
Pine Table mountain,Pinus pungens,MD,Allegany,169,https://www.americanforests.org?page_id=60016,https://www.americanforests.org/wp-content/plugins/bigtrees/view_image.php?area=web_pic&image_id=2987,39.6572451,-78.6550628
Pine Jack,Pinus banksiana,MN,Lake,167,https://www.americanforests.org?page_id=84922,https://www.americanforests.org/wp-content/plugins/bigtrees/view_image.php?area=web_pic&image_id=7851,47.6348022,-91.4394994
Apple Southern crab,Malus angustifolia,MD,Montgomery,167,https://www.americanforests.org?page_id=84968,https://www.americanforests.org/wp-content/plugins/bigtrees/view_image.php?area=web_pic&image_id=3918,39.1406267,-77.2075612
Leucaena Great,Leucaena pulverulenta,TX,Nueces,167,https://www.americanforests.org?page_id=80377,https://www.americanforests.org/wp-content/plugins/bigtrees/view_image.php?area=web_pic&image_id=5929,27.7153774,-97.6199942
Mango ,Mangifera indica,FL,Broward,167,https://www.americanforests.org?page_id=64593,https://www.americanforests.org/wp-content/plugins/bigtrees/view_image.php?area=web_pic&image_id=7806,26.1598074,-80.4623642
Willow Coastal plains,Salix caroliniana,FL,Alachua,165,https://www.americanforests.org?page_id=56372,https://www.americanforests.org/wp-content/plugins/bigtrees/view_image.php?area=web_pic&image_id=2714,29.675568,-82.3640109
Pine Jack,Pinus banksiana,MN,Saint Louis,165,https://www.americanforests.org?page_id=64530,https://www.americanforests.org/wp-content/plugins/bigtrees/NoImageAvailablePicture.jpg,47.6201005,-92.4363343
Chastetree Common,Vitex agnus-castus,TX,Dallas,165,https://www.americanforests.org?page_id=81990,https://www.americanforests.org/wp-content/plugins/bigtrees/view_image.php?area=web_pic&image_id=744,32.7620405,-96.7790069
Pine Singleleaf pinyon,Pinus monophylla,UT,Iron,164,https://www.americanforests.org?page_id=56408,https://www.americanforests.org/wp-content/plugins/bigtrees/view_image.php?area=web_pic&image_id=2504,37.8546136,-113.2867347
Serviceberry Downy,Amelanchier arborea,WV,Pocahontas,163,https://www.americanforests.org?page_id=67740,https://www.americanforests.org/wp-content/plugins/bigtrees/view_image.php?area=web_pic&image_id=7579,38.3022233,-80.0286878
Laurelcherry English,Prunus laurocerasus,WA,King,163,https://www.americanforests.org?page_id=64649,https://www.americanforests.org/wp-content/plugins/bigtrees/view_image.php?area=web_pic&image_id=1407,47.4873376,-121.8622122
Serviceberry Downy,Amelanchier arborea,WV,Upshur,163,https://www.americanforests.org?page_id=84928,https://www.americanforests.org/wp-content/plugins/bigtrees/NoImageAvailablePicture.jpg,38.8957981,-80.2461453
Royalpalm Florida,Roystonea regia,FL,Collier,162,https://www.americanforests.org?page_id=55495,https://www.americanforests.org/wp-content/plugins/bigtrees/view_image.php?area=web_pic&image_id=5891,26.087964,-81.3794941
Willow Pussy,Salix discolor,VA,Page,161,https://www.americanforests.org?page_id=56385,https://www.americanforests.org/wp-content/plugins/bigtrees/NoImageAvailablePicture.jpg,38.6002354,-78.5016516
Juniper Drooping,Juniperus flaccida,TX,Brewster,160,https://www.americanforests.org?page_id=64554,https://www.americanforests.org/wp-content/plugins/bigtrees/view_image.php?area=web_pic&image_id=7788,29.8462742,-103.2400734
Oak Netleaf,Quercus rugosa,AZ,Santa Cruz,159,https://www.americanforests.org?page_id=60054,https://www.americanforests.org/wp-content/plugins/bigtrees/view_image.php?area=web_pic&image_id=7949,31.5094579,-110.8476281
Ash Texas,Fraxinus texensis,NY,Monroe,159,https://www.americanforests.org?page_id=55426,https://www.americanforests.org/wp-content/plugins/bigtrees/view_image.php?area=web_pic&image_id=5299,43.150094,-77.6810141
Oak Island live,Quercus tomentella,CA,Santa Barbara,159,https://www.americanforests.org?page_id=56406,https://www.americanforests.org/wp-content/plugins/bigtrees/view_image.php?area=web_pic&image_id=7954,34.7136533,-119.9858232
Birch Gray,Betula populifolia,NJ,Cape May,158,https://www.americanforests.org?page_id=55803,https://www.americanforests.org/wp-content/plugins/bigtrees/view_image.php?area=web_pic&image_id=581,39.1765386,-74.8012119
Dogwood Flowering,Cornus florida,NC,Sampson,158,https://www.americanforests.org?page_id=67789,https://www.americanforests.org/wp-content/plugins/bigtrees/view_image.php?area=web_pic&image_id=7757,35.0078434,-78.3609662
Apple Oregon crab,Malus fusca,WA,King,156,https://www.americanforests.org?page_id=64664,https://www.americanforests.org/wp-content/plugins/bigtrees/view_image.php?area=web_pic&image_id=7805,47.4873376,-121.8622122
Manzanita Big,Arctostaphylos manzanita,CA,Chico,156,https://www.americanforests.org?page_id=57969,https://www.americanforests.org/wp-content/plugins/bigtrees/view_image.php?area=web_pic&image_id=2501,39.7284945,-121.8374777
Gumbo-limbo ,Bursera simaruba,FL,Monroe,155,https://www.americanforests.org?page_id=64645,https://www.americanforests.org/wp-content/plugins/bigtrees/view_image.php?area=web_pic&image_id=458,25.0405135,-80.8337157
Burningbush Eastern,Euonymus atropurpureus,MO,St. Louis,155,https://www.americanforests.org?page_id=55913,https://www.americanforests.org/wp-content/plugins/bigtrees/view_image.php?area=web_pic&image_id=5982,38.6398744,-90.51881277501238
Cherry Sour,Prunus cerasus,UT,Salt Lake,153,https://www.americanforests.org?page_id=55378,https://www.americanforests.org/wp-content/plugins/bigtrees/view_image.php?area=web_pic&image_id=2862,40.6632297,-111.9103124
Dahoon Myrtle,Ilex myrtifolia,FL,Wakulla,153,https://www.americanforests.org?page_id=55950,https://www.americanforests.org/wp-content/plugins/bigtrees/NoImageAvailablePicture.jpg,30.1480038,-84.3543512
Gumbo-limbo ,Bursera simaruba,FL,Miami-Dade,153,https://www.americanforests.org?page_id=84920,https://www.americanforests.org/wp-content/plugins/bigtrees/NoImageAvailablePicture.jpg,25.6364246,-80.4989467
Magnolia Pyramid,Magnolia pyramidata,FL,Gadsden,152,https://www.americanforests.org?page_id=85015,https://www.americanforests.org/wp-content/plugins/bigtrees/view_image.php?area=web_pic&image_id=7804,30.5937346,-84.6389937
Apple Sweet crab,Malus coronaria,VT,Orange,151,https://www.americanforests.org?page_id=67539,https://www.americanforests.org/wp-content/plugins/bigtrees/NoImageAvailablePicture.jpg,43.9950352,-72.3763533
Holly Hawai'i,Ilex anomala,HI,HawaiÊ»i,151,https://www.americanforests.org?page_id=60021,https://www.americanforests.org/wp-content/plugins/bigtrees/NoImageAvailablePicture.jpg,19.6273325,-155.5645619
Saguaro ,Carnegiea gigantea,AZ,Maricopa,151,https://www.americanforests.org?page_id=55352,https://www.americanforests.org/wp-content/plugins/bigtrees/view_image.php?area=web_pic&image_id=5648,33.34883,-112.49123
Lysiloma Littleleaf,Lysiloma watsonii,AZ,Maricopa,151,https://www.americanforests.org?page_id=55863,https://www.americanforests.org/wp-content/plugins/bigtrees/view_image.php?area=web_pic&image_id=7800,33.34883,-112.49123
Hophornbeam Eastern,Ostrya virginiana,ME,Oxford,149,https://www.americanforests.org?page_id=84914,https://www.americanforests.org/wp-content/plugins/bigtrees/NoImageAvailablePicture.jpg,44.4694529,-70.7782375
Hawthorn Oneseed,Crataegus monogyna,CT,Middlesex,148,https://www.americanforests.org?page_id=85023,https://www.americanforests.org/wp-content/plugins/bigtrees/view_image.php?area=web_pic&image_id=1604,42.485452,-71.3968261
Hawthorn Green,Crataegus viridis,NC,Halifax,148,https://www.americanforests.org?page_id=64603,https://www.americanforests.org/wp-content/plugins/bigtrees/NoImageAvailablePicture.jpg,36.2494056,-77.66834
Cypress Santa cruz,Cupressus abramsiana,CA,Contra Costa,147,https://www.americanforests.org?page_id=64543,https://www.americanforests.org/wp-content/plugins/bigtrees/view_image.php?area=web_pic&image_id=5728,37.9034806,-121.9175345
Acacia ,Avicennia germinans,FL,Monroe,147,https://www.americanforests.org?page_id=64757,https://www.americanforests.org/wp-content/plugins/bigtrees/NoImageAvailablePicture.jpg,25.0405135,-80.8337157
Tallowtree ,Triadica sebifera,VA,Norfolk,146,https://www.americanforests.org?page_id=84995,https://www.americanforests.org/wp-content/plugins/bigtrees/view_image.php?area=web_pic&image_id=805,42.1538607,-71.1828015
Mountain-ash European,Sorbus aucuparia,MT,Flathead,143,https://www.americanforests.org?page_id=56399,https://www.americanforests.org/wp-content/plugins/bigtrees/view_image.php?area=web_pic&image_id=4590,48.3840879,-113.972144
Paloverde Blue,Parkinsonia florida,AZ,Yuma,143,https://www.americanforests.org?page_id=81501,https://www.americanforests.org/wp-content/plugins/bigtrees/view_image.php?area=web_pic&image_id=7844,32.7915374,-113.8975031
Elder Mexican,Sambucus mexicana,AZ,Santa Cruz,143,https://www.americanforests.org?page_id=55865,https://www.americanforests.org/wp-content/plugins/bigtrees/NoImageAvailablePicture.jpg,31.5094579,-110.8476281
Hickory Scrub,Carya floridana,FL,Lake,142,https://www.americanforests.org?page_id=55480,https://www.americanforests.org/wp-content/plugins/bigtrees/view_image.php?area=web_pic&image_id=7602,28.7006859,-81.78994
Mangrove Red,Rhizophora mangle,FL,Lee,142,https://www.americanforests.org?page_id=55335,https://www.americanforests.org/wp-content/plugins/bigtrees/view_image.php?area=web_pic&image_id=5618,26.5999265,-81.8823135
Oak Chapman,Quercus chapmanii,FL,Marion,141,https://www.americanforests.org?page_id=81835,https://www.americanforests.org/wp-content/plugins/bigtrees/NoImageAvailablePicture.jpg,29.2182454,-82.0626948
Silverbell Two-wing,Halesia diptera,NJ,Middlesex,140,https://www.americanforests.org?page_id=55597,https://www.americanforests.org/wp-content/plugins/bigtrees/view_image.php?area=web_pic&image_id=1439,40.4279708,-74.3963102
Pine Mexican pinyon,Pinus cembroides,TX,Brewster,139,https://www.americanforests.org?page_id=81508,https://www.americanforests.org/wp-content/plugins/bigtrees/view_image.php?area=web_pic&image_id=1056,29.8462742,-103.2400734
Yaupon ,Ilex vomitoria,NC,Wayne,139,https://www.americanforests.org?page_id=84985,https://www.americanforests.org/wp-content/plugins/bigtrees/NoImageAvailablePicture.jpg,35.3546293,-78.0149444
Palmetto Cabbage,Sabal palmetto,FL,Lafayette,137,https://www.americanforests.org?page_id=55938,https://www.americanforests.org/wp-content/plugins/bigtrees/NoImageAvailablePicture.jpg,29.9978185,-83.2221527
Hibiscus Sea,Hibiscus tiliaceus,HI,HawaiÊ»i,136,https://www.americanforests.org?page_id=55517,https://www.americanforests.org/wp-content/plugins/bigtrees/view_image.php?area=web_pic&image_id=5892,19.6273325,-155.5645619
Pine Mexican pinyon,Pinus cembroides,TX,Brewster,136,https://www.americanforests.org?page_id=56071,https://www.americanforests.org/wp-content/plugins/bigtrees/view_image.php?area=web_pic&image_id=1058,29.8462742,-103.2400734
Dahoon ,Ilex cassine,FL,Palm Beach,136,https://www.americanforests.org?page_id=64629,https://www.americanforests.org/wp-content/plugins/bigtrees/NoImageAvailablePicture.jpg,26.6279798,-80.4494174
Catclaw Wright,Acacia greggii var. wrightii,TX,Uvalde,135,https://www.americanforests.org?page_id=55847,https://www.americanforests.org/wp-content/plugins/bigtrees/view_image.php?area=web_pic&image_id=1524,29.300357,-99.7733181
Vauquelinia Torrey,Vauquelinia californica,AZ,Pima,135,https://www.americanforests.org?page_id=56014,https://www.americanforests.org/wp-content/plugins/bigtrees/view_image.php?area=web_pic&image_id=5473,32.1112624,-111.6546163
Cherry Hollyleaf,Prunus ilicifolia,CA,Alameda,132,https://www.americanforests.org?page_id=56464,https://www.americanforests.org/wp-content/plugins/bigtrees/view_image.php?area=web_pic&image_id=2852,37.6090291,-121.899142
Paradise-tree ,Simarouba glauca,FL,Miami-Dade,130,https://www.americanforests.org?page_id=55375,https://www.americanforests.org/wp-content/plugins/bigtrees/NoImageAvailablePicture.jpg,25.6364246,-80.4989467
Buckthorn Glossy,Rhamnus frangula,VA,Lynchburg,130,https://www.americanforests.org?page_id=64611,https://www.americanforests.org/wp-content/plugins/bigtrees/view_image.php?area=web_pic&image_id=5386,37.4137536,-79.1422464
Bayberry Pacific,Morella californica,OR,Coos,130,https://www.americanforests.org?page_id=55617,https://www.americanforests.org/wp-content/plugins/bigtrees/NoImageAvailablePicture.jpg,43.2184144,-124.109621
Buckeye Red,Aesculus pavia,MO,St. Louis,129,https://www.americanforests.org?page_id=67734,https://www.americanforests.org/wp-content/plugins/bigtrees/view_image.php?area=web_pic&image_id=4608,38.6398744,-90.51881277501238
Jujube Indian,Ziziphus mauritiana,FL,Broward,128,https://www.americanforests.org?page_id=81997,https://www.americanforests.org/wp-content/plugins/bigtrees/NoImageAvailablePicture.jpg,26.1598074,-80.4623642
Jerusalem-thorn ,Parkinsonia aculeata,AZ,Maricopa,127,https://www.americanforests.org?page_id=81502,https://www.americanforests.org/wp-content/plugins/bigtrees/view_image.php?area=web_pic&image_id=7835,33.34883,-112.49123
Maple Vine,Acer circinatum,OR,Clatsop,127,https://www.americanforests.org?page_id=55934,https://www.americanforests.org/wp-content/plugins/bigtrees/NoImageAvailablePicture.jpg,45.980728,-123.6687499
Joshua-tree ,Yucca brevifolia,UT,Washington,127,https://www.americanforests.org?page_id=84952,https://www.americanforests.org/wp-content/plugins/bigtrees/view_image.php?area=web_pic&image_id=8044,37.2393471,-113.525776
Canotia ,Canotia holacantha,AZ,Mohave,127,https://www.americanforests.org?page_id=55859,https://www.americanforests.org/wp-content/plugins/bigtrees/view_image.php?area=web_pic&image_id=7600,35.7218038,-113.8271174
Eve's necklace Texas,Styphnolobium affine,TX,Real,126,https://www.americanforests.org?page_id=55850,https://www.americanforests.org/wp-content/plugins/bigtrees/view_image.php?area=web_pic&image_id=7989,29.7949383,-99.8280905
Spruce Serbian,Picea omorika,OH,Union,126,https://www.americanforests.org?page_id=56404,https://www.americanforests.org/wp-content/plugins/bigtrees/view_image.php?area=web_pic&image_id=2495,40.3255937,-83.3676859
Oak Chisos,Quercus graciliformis,TX,Brewster,126,https://www.americanforests.org?page_id=56415,https://www.americanforests.org/wp-content/plugins/bigtrees/NoImageAvailablePicture.jpg,29.8462742,-103.2400734
Sumac Sugar,Rhus ovata,AZ,Pinal,126,https://www.americanforests.org?page_id=85020,https://www.americanforests.org/wp-content/plugins/bigtrees/view_image.php?area=web_pic&image_id=8046,32.8085851,-111.4426212
Redbud California,Cercis occidentalis,CA,Sonoma,126,https://www.americanforests.org?page_id=56077,https://www.americanforests.org/wp-content/plugins/bigtrees/view_image.php?area=web_pic&image_id=7626,38.5110803,-122.8473388
Pigeon-plum ,Coccoloba diversifolia,FL,Miami-Dade,125,https://www.americanforests.org?page_id=55449,https://www.americanforests.org/wp-content/plugins/bigtrees/NoImageAvailablePicture.jpg,25.6364246,-80.4989467
Plum Mexican,Prunus mexicana,TX,Harris,123,https://www.americanforests.org?page_id=64578,https://www.americanforests.org/wp-content/plugins/bigtrees/view_image.php?area=web_pic&image_id=3409,29.8119769,-95.3741247
Soapberry Lonomea,Sapindus oahuensis,HI,Oâ€˜ahu,123,https://www.americanforests.org?page_id=82099,https://www.americanforests.org/wp-content/plugins/bigtrees/NoImageAvailablePicture.jpg,,
Buckeye Painted,Aesculus sylvatica,VA,Sussex,122,https://www.americanforests.org?page_id=67735,https://www.americanforests.org/wp-content/plugins/bigtrees/NoImageAvailablePicture.jpg,36.9096897,-77.2741121
Willow Silky,Salix sericea,NJ,Morris,122,https://www.americanforests.org?page_id=55551,https://www.americanforests.org/wp-content/plugins/bigtrees/view_image.php?area=web_pic&image_id=1454,40.8679538,-74.5601181
Coconut Palm,Cocos nucifera,HI,Maui,122,https://www.americanforests.org?page_id=56436,https://www.americanforests.org/wp-content/plugins/bigtrees/view_image.php?area=web_pic&image_id=5915,20.7580586,-156.3105232
Fringetree ,Chionanthus virginicus,UT,Salt Lake,121,https://www.americanforests.org?page_id=56422,https://www.americanforests.org/wp-content/plugins/bigtrees/view_image.php?area=web_pic&image_id=2881,40.6632297,-111.9103124
Oak Myrtle,Quercus myrtifolia,FL,Collier,121,https://www.americanforests.org?page_id=56373,https://www.americanforests.org/wp-content/plugins/bigtrees/view_image.php?area=web_pic&image_id=5589,26.087964,-81.3794941
Hackberry Dwarf,Celtis tenuifolia,VA,Alexandria,121,https://www.americanforests.org?page_id=55720,https://www.americanforests.org/wp-content/plugins/bigtrees/view_image.php?area=web_pic&image_id=8022,38.8051095,-77.0470229
Cherry Bitter,Prunus emarginata,OR,Marion,121,https://www.americanforests.org?page_id=55406,https://www.americanforests.org/wp-content/plugins/bigtrees/NoImageAvailablePicture.jpg,44.8964425,-122.7203248
Hackberry Dwarf,Celtis tenuifolia,VA,Arlington,121,https://www.americanforests.org?page_id=64662,https://www.americanforests.org/wp-content/plugins/bigtrees/view_image.php?area=web_pic&image_id=4403,38.8769326,-77.0893094
Blackhaw Smooth,Viburnum prunifolium,VA,Albemarle,121,https://www.americanforests.org?page_id=55614,https://www.americanforests.org/wp-content/plugins/bigtrees/view_image.php?area=web_pic&image_id=7177,38.0085107,-78.6086754
Blackhaw Smooth,Viburnum prunifolium,VA,Charlotte,120,https://www.americanforests.org?page_id=56403,https://www.americanforests.org/wp-content/plugins/bigtrees/view_image.php?area=web_pic&image_id=5872,26.9013269,-81.9156799
Hawthorn Dotted,Crataegus punctata,VA,Grayson,120,https://www.americanforests.org?page_id=67911,https://www.americanforests.org/wp-content/plugins/bigtrees/view_image.php?area=web_pic&image_id=4940,33.5636114,-96.6702111
Cypress Gowen,Cupressus goveniana ssp. goveniana,CA,Monterey,119,https://www.americanforests.org?page_id=56458,https://www.americanforests.org/wp-content/plugins/bigtrees/NoImageAvailablePicture.jpg,36.2231079,-121.3877428
Birch Mountain paper,Betula papyrifera var. cordifolia,NH,Coos,119,https://www.americanforests.org?page_id=64612,https://www.americanforests.org/wp-content/plugins/bigtrees/view_image.php?area=web_pic&image_id=1236,44.698627,-71.3768039
Manzanita Whiteleaf,Arctostaphylos viscida,CA,Tulare,119,https://www.americanforests.org?page_id=64637,https://www.americanforests.org/wp-content/plugins/bigtrees/NoImageAvailablePicture.jpg,36.2516475,-118.852583
Oak Palmer,Quercus palmeri,AZ,Yavapai,118,https://www.americanforests.org?page_id=64641,https://www.americanforests.org/wp-content/plugins/bigtrees/view_image.php?area=web_pic&image_id=8028,34.5668857,-112.5515965
Hawthorn Dotted,Crataegus punctata,VA,Grayson,118,https://www.americanforests.org?page_id=64613,https://www.americanforests.org/wp-content/plugins/bigtrees/view_image.php?area=web_pic&image_id=7640,33.5636114,-96.6702111
Catclaw Gregg,Acacia greggii,AZ,Yavapai,117,https://www.americanforests.org?page_id=56447,https://www.americanforests.org/wp-content/plugins/bigtrees/view_image.php?area=web_pic&image_id=7715,34.5668857,-112.5515965
Dogwood Alternate-leaf,Cornus alternifolia,NJ,Morris,116,https://www.americanforests.org?page_id=55553,https://www.americanforests.org/wp-content/plugins/bigtrees/view_image.php?area=web_pic&image_id=7623,40.8679538,-74.5601181
Chokecherry Western,Prunus virginiana var. demissa,OR,Marion,116,https://www.americanforests.org?page_id=56390,https://www.americanforests.org/wp-content/plugins/bigtrees/view_image.php?area=web_pic&image_id=2813,44.8964425,-122.7203248
Leadwood ,Krugiodendron ferreum,FL,Monroe,116,https://www.americanforests.org?page_id=56051,https://www.americanforests.org/wp-content/plugins/bigtrees/NoImageAvailablePicture.jpg,25.0405135,-80.8337157
Inkwood ,Exothea paniculata,FL,Monroe,116,https://www.americanforests.org?page_id=55830,https://www.americanforests.org/wp-content/plugins/bigtrees/NoImageAvailablePicture.jpg,25.0405135,-80.8337157
Serviceberry Roundleaf,Amelanchier sanguinea,VT,Rutland,115,https://www.americanforests.org?page_id=60053,https://www.americanforests.org/wp-content/plugins/bigtrees/view_image.php?area=web_pic&image_id=7744,43.574307000000005,-73.0266483725074
Syzygium 'ohi'a ha,Syzygium sandwicense,HI,Honolulu,115,https://www.americanforests.org?page_id=60007,https://www.americanforests.org/wp-content/plugins/bigtrees/NoImageAvailablePicture.jpg,21.468151,-157.960511
Palmetto Mexican,Sabal mexicana,TX,Hidalgo,115,https://www.americanforests.org?page_id=56030,https://www.americanforests.org/wp-content/plugins/bigtrees/view_image.php?area=web_pic&image_id=7963,26.3530256,-98.216445
Locust New mexico,Robinia neomexicana,AZ,Gila,115,https://www.americanforests.org?page_id=64535,https://www.americanforests.org/wp-content/plugins/bigtrees/NoImageAvailablePicture.jpg,33.74135485,-110.68128894247536
Stopper Redberry,Eugenia confusa,FL,Miami-Dade,115,https://www.americanforests.org?page_id=55357,https://www.americanforests.org/wp-content/plugins/bigtrees/NoImageAvailablePicture.jpg,25.6364246,-80.4989467
Maple Chalk,Acer leucoderme,NC,Gaston,113,https://www.americanforests.org?page_id=84954,https://www.americanforests.org/wp-content/plugins/bigtrees/view_image.php?area=web_pic&image_id=7564,35.2849659,-81.179014
Bustic Willow,Sideroxylon salicifolium,FL,Miami-Dade,113,https://www.americanforests.org?page_id=84936,https://www.americanforests.org/wp-content/plugins/bigtrees/view_image.php?area=web_pic&image_id=7984,25.6364246,-80.4989467
Manzanita Pringle,Arctostaphylos pringlei,AZ,Yavapai,113,https://www.americanforests.org?page_id=55522,https://www.americanforests.org/wp-content/plugins/bigtrees/NoImageAvailablePicture.jpg,34.5668857,-112.5515965
Tamarisk Small-flower,Tamarix paryiflora,OR,Multnomah,112,https://www.americanforests.org?page_id=55887,https://www.americanforests.org/wp-content/plugins/bigtrees/view_image.php?area=web_pic&image_id=7995,45.5093799,-122.4006413
Cyrilla Swamp,Cyrilla racemiflora,FL,Washington,112,https://www.americanforests.org?page_id=56076,https://www.americanforests.org/wp-content/plugins/bigtrees/NoImageAvailablePicture.jpg,30.6009343,-85.6762025
Cherry West indian,Prunus myrtifolia,FL,Miami-Dade,111,https://www.americanforests.org?page_id=56037,https://www.americanforests.org/wp-content/plugins/bigtrees/NoImageAvailablePicture.jpg,25.6364246,-80.4989467
Buckeye Texas,Aesculus glabra var. arguta,TX,Gillespie,111,https://www.americanforests.org?page_id=55849,https://www.americanforests.org/wp-content/plugins/bigtrees/view_image.php?area=web_pic&image_id=1032,30.2954086,-98.9086643
Chokecherry Black,Prunus virginiana var. melanocarpa,MT,Flathead,111,https://www.americanforests.org?page_id=65215,https://www.americanforests.org/wp-content/plugins/bigtrees/NoImageAvailablePicture.jpg,48.3840879,-113.972144
Cherry Alabama black,Prunus alabamensis,AL,Tuscaloosa,110,https://www.americanforests.org?page_id=55540,https://www.americanforests.org/wp-content/plugins/bigtrees/NoImageAvailablePicture.jpg,33.2668398,-87.4862182
Cercocarpus Birchleaf,Cercocarpus betuloides,OR,Douglas,110,https://www.americanforests.org?page_id=55549,https://www.americanforests.org/wp-content/plugins/bigtrees/NoImageAvailablePicture.jpg,43.1922115,-123.1135963
Privet California,Ligustrum ovalifolium,VA,Roanoke,109,https://www.americanforests.org?page_id=64639,https://www.americanforests.org/wp-content/plugins/bigtrees/NoImageAvailablePicture.jpg,37.270973,-79.9414313
Privet Japanese,Ligustrum japonicum,TX,Houston,109,https://www.americanforests.org?page_id=55557,https://www.americanforests.org/wp-content/plugins/bigtrees/NoImageAvailablePicture.jpg,31.3378465,-95.390805
Licaria Florida,Licaria triandra,FL,Miami-Dade,106,https://www.americanforests.org?page_id=55356,https://www.americanforests.org/wp-content/plugins/bigtrees/NoImageAvailablePicture.jpg,25.6364246,-80.4989467
Blackhaw Rusty,Viburnum rufidulum,TX,Cherokee,106,https://www.americanforests.org?page_id=55721,https://www.americanforests.org/wp-content/plugins/bigtrees/view_image.php?area=web_pic&image_id=5930,31.8390826,-95.1791849
Bluewood ,Condalia hookeri,TX,Hidalgo,106,https://www.americanforests.org?page_id=64555,https://www.americanforests.org/wp-content/plugins/bigtrees/NoImageAvailablePicture.jpg,26.3530256,-98.216445
Paloverde Yellow,Parkinsonia microphylla,AZ,Maricopa,106,https://www.americanforests.org?page_id=55900,https://www.americanforests.org/wp-content/plugins/bigtrees/view_image.php?area=web_pic&image_id=4303,33.34883,-112.49123
Blackhaw Rusty,Viburnum rufidulum,VA,Westmoreland,106,https://www.americanforests.org?page_id=85024,https://www.americanforests.org/wp-content/plugins/bigtrees/view_image.php?area=web_pic&image_id=6179,40.2930159,-79.4873204
Pawpaw Common,Asimina triloba,MD,Montgomery,105,https://www.americanforests.org?page_id=55340,https://www.americanforests.org/wp-content/plugins/bigtrees/view_image.php?area=web_pic&image_id=7593,39.1406267,-77.2075612
Bumelia Saffron-plum,Sideroxylon celastrinum,TX,Cameron,104,https://www.americanforests.org?page_id=64579,https://www.americanforests.org/wp-content/plugins/bigtrees/NoImageAvailablePicture.jpg,26.1291189,-97.4134281
Bumelia Buckthorn,Sideroxylon lycioides,VA,Norfolk,104,https://www.americanforests.org?page_id=55633,https://www.americanforests.org/wp-content/plugins/bigtrees/view_image.php?area=web_pic&image_id=7983,42.1538607,-71.1828015
Yucca Faxon,Yucca faxoniana,TX,Brewster,103,https://www.americanforests.org?page_id=55809,https://www.americanforests.org/wp-content/plugins/bigtrees/view_image.php?area=web_pic&image_id=8016,29.8462742,-103.2400734
Mountain-ash American,Sorbus americana,VA,Grayson,103,https://www.americanforests.org?page_id=84942,https://www.americanforests.org/wp-content/plugins/bigtrees/view_image.php?area=web_pic&image_id=7212,33.5636114,-96.6702111
Sweetleaf Common,Symplocos tinctoria,VA,Chesapeake,102,https://www.americanforests.org?page_id=56052,https://www.americanforests.org/wp-content/plugins/bigtrees/NoImageAvailablePicture.jpg,36.7183708,-76.2466798
Oleander ,Nerium oleander,AZ,Maricopa,102,https://www.americanforests.org?page_id=55888,https://www.americanforests.org/wp-content/plugins/bigtrees/view_image.php?area=web_pic&image_id=7831,33.34883,-112.49123
Sophora Mescalbean,Sophora secundiflora,TX,Comal,102,https://www.americanforests.org?page_id=55448,https://www.americanforests.org/wp-content/plugins/bigtrees/NoImageAvailablePicture.jpg,29.7979704,-98.2690787
Maple Striped,Acer pensylvanicum,VA,Grayson,102,https://www.americanforests.org?page_id=67738,https://www.americanforests.org/wp-content/plugins/bigtrees/view_image.php?area=web_pic&image_id=7565,33.5636114,-96.6702111
Jujube Common,Ziziphus jujuba,VA,Norfolk,101,https://www.americanforests.org?page_id=56423,https://www.americanforests.org/wp-content/plugins/bigtrees/NoImageAvailablePicture.jpg,42.1538607,-71.1828015
Jujube Common,Ziziphus jujuba,VA,Williamsburg,101,https://www.americanforests.org?page_id=56368,https://www.americanforests.org/wp-content/plugins/bigtrees/view_image.php?area=web_pic&image_id=5895,33.6442699,-79.7442135
Maple Amur,Acer ginnala,VA,Montgomery,100,https://www.americanforests.org?page_id=67730,https://www.americanforests.org/wp-content/plugins/bigtrees/view_image.php?area=web_pic&image_id=5033,30.301949,-95.5065944
White ironwood ,Hypelate trifoliata,FL,Monroe,100,https://www.americanforests.org?page_id=56454,https://www.americanforests.org/wp-content/plugins/bigtrees/NoImageAvailablePicture.jpg,25.0405135,-80.8337157
Oak Vasey,Quercus vaseyana,TX,Brewster,99,https://www.americanforests.org?page_id=84909,https://www.americanforests.org/wp-content/plugins/bigtrees/NoImageAvailablePicture.jpg,29.8462742,-103.2400734
Oak Bear,Quercus ilicifolia,CT,Hartford,98,https://www.americanforests.org?page_id=81840,https://www.americanforests.org/wp-content/plugins/bigtrees/NoImageAvailablePicture.jpg,41.7923478,-72.722324
Oak Mohr,Quercus mohriana,TX,Randall,96,https://www.americanforests.org?page_id=55538,https://www.americanforests.org/wp-content/plugins/bigtrees/NoImageAvailablePicture.jpg,34.9444713,-101.8850309
Ash Fragrant,Fraxinus cuspidata,AZ,Coconino,95,https://www.americanforests.org?page_id=55886,https://www.americanforests.org/wp-content/plugins/bigtrees/view_image.php?area=web_pic&image_id=7675,35.9363252,-111.6948197
Wild-dilly ,Manilkara jaimiqui,FL,Monroe,93,https://www.americanforests.org?page_id=64590,https://www.americanforests.org/wp-content/plugins/bigtrees/NoImageAvailablePicture.jpg,25.0405135,-80.8337157
Fiddlewood Florida,Citharexylum spinosum,FL,Miami-Dade,93,https://www.americanforests.org?page_id=84990,https://www.americanforests.org/wp-content/plugins/bigtrees/NoImageAvailablePicture.jpg,25.6364246,-80.4989467
Sparkleberry Tree,Vaccinium arboreum,FL,Walton,93,https://www.americanforests.org?page_id=55709,https://www.americanforests.org/wp-content/plugins/bigtrees/NoImageAvailablePicture.jpg,30.6204939,-86.1912678
Sparkleberry Tree,Vaccinium arboreum,TX,Houston,92,https://www.americanforests.org?page_id=64628,https://www.americanforests.org/wp-content/plugins/bigtrees/NoImageAvailablePicture.jpg,31.3378465,-95.390805
Devilwood ,Osmanthus americanus,FL,Wakulla,92,https://www.americanforests.org?page_id=81503,https://www.americanforests.org/wp-content/plugins/bigtrees/NoImageAvailablePicture.jpg,30.1480038,-84.3543512
Toyon ,Heteromeles arbutifolia,CA,Santa Barbara,91,https://www.americanforests.org?page_id=84953,https://www.americanforests.org/wp-content/plugins/bigtrees/view_image.php?area=web_pic&image_id=6611,34.7136533,-119.9858232
Hawthorn Castlegar,Crataegus castlegarensis,MT,Flathead,91,https://www.americanforests.org?page_id=56384,https://www.americanforests.org/wp-content/plugins/bigtrees/NoImageAvailablePicture.jpg,48.3840879,-113.972144
Persimmon Texas,Diospyros texana,TX,Refugio,91,https://www.americanforests.org?page_id=84962,https://www.americanforests.org/wp-content/plugins/bigtrees/view_image.php?area=web_pic&image_id=7648,28.3171012,-97.2394101
Oak Dwarf chinkapin,Quercus prinoides,NY,Monroe,91,https://www.americanforests.org?page_id=64601,https://www.americanforests.org/wp-content/plugins/bigtrees/view_image.php?area=web_pic&image_id=5826,43.150094,-77.6810141
Ash Singleleaf,Fraxinus anomala var. anomala,CO,Mesa,90,https://www.americanforests.org?page_id=55521,https://www.americanforests.org/wp-content/plugins/bigtrees/view_image.php?area=web_pic&image_id=7671,39.0589084,-108.565996
Sumac Shining,Rhus copallinum,MS,Pontotoc,90,https://www.americanforests.org?page_id=55928,https://www.americanforests.org/wp-content/plugins/bigtrees/view_image.php?area=web_pic&image_id=1364,34.2114655,-89.0382651
Franklin-tree ,Franklinia alatamaha,NY,Kings,89,https://www.americanforests.org?page_id=64531,https://www.americanforests.org/wp-content/plugins/bigtrees/view_image.php?area=web_pic&image_id=4307,40.64530975,-73.9550230275334
Huajillo Huajillo,Havardia pallens,TX,Hidalgo,88,https://www.americanforests.org?page_id=55504,https://www.americanforests.org/wp-content/plugins/bigtrees/NoImageAvailablePicture.jpg,26.3530256,-98.216445
Oak Georgia,Quercus georgiana,GA,Clarke,88,https://www.americanforests.org?page_id=84956,https://www.americanforests.org/wp-content/plugins/bigtrees/view_image.php?area=web_pic&image_id=7914,41.0152092,-93.7842976
Holly Tawnberry,Ilex krugiana,FL,Miami-Dade,88,https://www.americanforests.org?page_id=55498,https://www.americanforests.org/wp-content/plugins/bigtrees/NoImageAvailablePicture.jpg,25.6364246,-80.4989467
Serviceberry Western,Amelanchier alnifolia,OR,Clackamas,87,https://www.americanforests.org?page_id=55407,https://www.americanforests.org/wp-content/plugins/bigtrees/NoImageAvailablePicture.jpg,45.1608821,-122.2305038
Soldierwood ,Colubrina elliptica,FL,Monroe,87,https://www.americanforests.org?page_id=85018,https://www.americanforests.org/wp-content/plugins/bigtrees/NoImageAvailablePicture.jpg,25.0405135,-80.8337157
Parasoltree Chinese,Firmiana simplex,VA,Norfolk,87,https://www.americanforests.org?page_id=56392,https://www.americanforests.org/wp-content/plugins/bigtrees/NoImageAvailablePicture.jpg,42.1538607,-71.1828015
Satinwood West indian,Zanthoxylum flavum,FL,Monroe,87,https://www.americanforests.org?page_id=85009,https://www.americanforests.org/wp-content/plugins/bigtrees/view_image.php?area=web_pic&image_id=3466,25.0405135,-80.8337157
Hawthorn Suksdorf,Crataegus suksdorfii,WA,King,87,https://www.americanforests.org?page_id=64561,https://www.americanforests.org/wp-content/plugins/bigtrees/view_image.php?area=web_pic&image_id=4333,47.4873376,-121.8622122
Jamaican nettletree Florida,Trema micrantha,FL,Broward,85,https://www.americanforests.org?page_id=84955,https://www.americanforests.org/wp-content/plugins/bigtrees/NoImageAvailablePicture.jpg,26.1598074,-80.4623642
Ash Lowell,Fraxinus anomala var. lowellii,AZ,Yavapai,85,https://www.americanforests.org?page_id=55893,https://www.americanforests.org/wp-content/plugins/bigtrees/view_image.php?area=web_pic&image_id=7672,34.5668857,-112.5515965
Milkbark ,Drypetes diversifolia,FL,Monroe,85,https://www.americanforests.org?page_id=55664,https://www.americanforests.org/wp-content/plugins/bigtrees/NoImageAvailablePicture.jpg,25.0405135,-80.8337157
Esenbeckia Berlandier,Esenbeckia berlandieri,TX,Brownsville,83,https://www.americanforests.org?page_id=55989,https://www.americanforests.org/wp-content/plugins/bigtrees/view_image.php?area=web_pic&image_id=2911,,
Swamp-privet Eastern,Forestiera acuminata,TX,Red River,82,https://www.americanforests.org?page_id=55446,https://www.americanforests.org/wp-content/plugins/bigtrees/NoImageAvailablePicture.jpg,33.571979,-95.0429674
Lyonia Tree,Lyonia ferruginea,FL,Wakulla,81,https://www.americanforests.org?page_id=85003,https://www.americanforests.org/wp-content/plugins/bigtrees/NoImageAvailablePicture.jpg,30.1480038,-84.3543512
Chinkapin Allegheny,Castanea pumila var. pumila,TX,Trinity,81,https://www.americanforests.org?page_id=56407,https://www.americanforests.org/wp-content/plugins/bigtrees/view_image.php?area=web_pic&image_id=2503,31.0834452,-95.1219348
Hawthorn Tracy,Crataegus tracyi,TX,Jeff Davis,80,https://www.americanforests.org?page_id=55566,https://www.americanforests.org/wp-content/plugins/bigtrees/view_image.php?area=web_pic&image_id=1028,30.7018281,-104.1501698
Syzygium Malaysian apple,Syzygium malaccense,HI,KauaÊ»i,79,https://www.americanforests.org?page_id=60012,https://www.americanforests.org/wp-content/plugins/bigtrees/view_image.php?area=web_pic&image_id=7993,22.0557204,-159.4945109
Dogwood Roughleaf,Cornus drummondii,MS,Tunica,78,https://www.americanforests.org?page_id=60058,https://www.americanforests.org/wp-content/plugins/bigtrees/NoImageAvailablePicture.jpg,34.6399136,-90.3623833
Byrsonima Key,Byrsonima lucida,FL,Monroe,78,https://www.americanforests.org?page_id=55328,https://www.americanforests.org/wp-content/plugins/bigtrees/NoImageAvailablePicture.jpg,25.0405135,-80.8337157
Hopbush ,Dodonaea viscosa,HI,HawaiÊ»i,77,https://www.americanforests.org?page_id=82093,https://www.americanforests.org/wp-content/plugins/bigtrees/view_image.php?area=web_pic&image_id=7652,19.6273325,-155.5645619
Orange Sour,Citrus aurantium,AZ,Pima,77,https://www.americanforests.org?page_id=55885,https://www.americanforests.org/wp-content/plugins/bigtrees/view_image.php?area=web_pic&image_id=4302,32.1112624,-111.6546163
Hercules-club ,Zanthoxylum clava-herculis,VA,Northampton,77,https://www.americanforests.org?page_id=81995,https://www.americanforests.org/wp-content/plugins/bigtrees/NoImageAvailablePicture.jpg,40.7451356,-75.3289302
Silktassel Wavyleaf,Garrya elliptica,OR,Curry,76,https://www.americanforests.org?page_id=55432,https://www.americanforests.org/wp-content/plugins/bigtrees/NoImageAvailablePicture.jpg,42.4265426,-124.216879
Plum Hortulan,Prunus hortulana,MO,Boone,76,https://www.americanforests.org?page_id=60020,https://www.americanforests.org/wp-content/plugins/bigtrees/view_image.php?area=web_pic&image_id=3027,39.0153926,-92.3307534
Strongback Bahama,Bourreria succulenta,FL,Miami-Dade,76,https://www.americanforests.org?page_id=84932,https://www.americanforests.org/wp-content/plugins/bigtrees/NoImageAvailablePicture.jpg,25.6364246,-80.4989467
Willow Northwest,Salix sessilifolia,OR,Marion,76,https://www.americanforests.org?page_id=56364,https://www.americanforests.org/wp-content/plugins/bigtrees/NoImageAvailablePicture.jpg,44.8964425,-122.7203248
Persimmon Lama,Diospyros sandwicensis,HI,HawaiÊ»i,76,https://www.americanforests.org?page_id=82100,https://www.americanforests.org/wp-content/plugins/bigtrees/NoImageAvailablePicture.jpg,19.6273325,-155.5645619
Geiger-tree ,Cordia sebestena,FL,Palm Beach,75,https://www.americanforests.org?page_id=55811,https://www.americanforests.org/wp-content/plugins/bigtrees/NoImageAvailablePicture.jpg,26.6279798,-80.4494174
Witch-hazel ,Hamamelis virginiana,VA,Russell,75,https://www.americanforests.org?page_id=59993,https://www.americanforests.org/wp-content/plugins/bigtrees/NoImageAvailablePicture.jpg,38.8970508,-98.7980433
Nectandra Florida,Nectandra coriacea,FL,Miami-Dade,75,https://www.americanforests.org?page_id=55493,https://www.americanforests.org/wp-content/plugins/bigtrees/NoImageAvailablePicture.jpg,25.6364246,-80.4989467
Stopper Twinberry,Myrcianthes fragrans,FL,Broward,74,https://www.americanforests.org?page_id=60073,https://www.americanforests.org/wp-content/plugins/bigtrees/NoImageAvailablePicture.jpg,26.1598074,-80.4623642
Leucaena Littleleaf,Leucaena retusa,TX,Midland,74,https://www.americanforests.org?page_id=55537,https://www.americanforests.org/wp-content/plugins/bigtrees/view_image.php?area=web_pic&image_id=1224,31.83688,-102.0103767
Canella ,Canella winterana,FL,Monroe,74,https://www.americanforests.org?page_id=55952,https://www.americanforests.org/wp-content/plugins/bigtrees/view_image.php?area=web_pic&image_id=462,25.0405135,-80.8337157
Bayberry Southern,Morella cerifera,VA,Virginia Beach,74,https://www.americanforests.org?page_id=84980,https://www.americanforests.org/wp-content/plugins/bigtrees/NoImageAvailablePicture.jpg,36.8529841,-75.9774183
Rhododendron Rosebay,Rhododendron maximum,NC,Transylvania,73,https://www.americanforests.org?page_id=55528,https://www.americanforests.org/wp-content/plugins/bigtrees/NoImageAvailablePicture.jpg,35.1982216,-82.7724889
Sumac Prairie,Rhus lanceolata,TX,Gillespie,73,https://www.americanforests.org?page_id=56387,https://www.americanforests.org/wp-content/plugins/bigtrees/view_image.php?area=web_pic&image_id=5619,30.2954086,-98.9086643
Hawthorn Fleshy,Crataegus succulenta,NY,Monroe,71,https://www.americanforests.org?page_id=56355,https://www.americanforests.org/wp-content/plugins/bigtrees/NoImageAvailablePicture.jpg,43.150094,-77.6810141
Joewood ,Jacquinia keyensis,FL,Lee,70,https://www.americanforests.org?page_id=55672,https://www.americanforests.org/wp-content/plugins/bigtrees/NoImageAvailablePicture.jpg,26.5999265,-81.8823135
Sumac Smooth,Rhus glabra,WA,King,69,https://www.americanforests.org?page_id=64656,https://www.americanforests.org/wp-content/plugins/bigtrees/NoImageAvailablePicture.jpg,47.4873376,-121.8622122
Sumac Staghorn,Rhus typhina,MT,Ravalli,69,https://www.americanforests.org?page_id=56383,https://www.americanforests.org/wp-content/plugins/bigtrees/NoImageAvailablePicture.jpg,46.0757223,-114.1139453
Plum Chickasaw,Prunus angustifolia,FL,Alachua,69,https://www.americanforests.org?page_id=64528,https://www.americanforests.org/wp-content/plugins/bigtrees/NoImageAvailablePicture.jpg,29.675568,-82.3640109
Hawthorn Pringle,Crataegus coccinea var. pringlei,OH,Portage,68,https://www.americanforests.org?page_id=82092,https://www.americanforests.org/wp-content/plugins/bigtrees/view_image.php?area=web_pic&image_id=7760,41.1496775,-81.2082
Hercules-club Texas,Zanthoxylum hirsutum,TX,Tarrant,68,https://www.americanforests.org?page_id=60065,https://www.americanforests.org/wp-content/plugins/bigtrees/view_image.php?area=web_pic&image_id=2558,32.7513658,-97.335696
Plum Wildgoose,Prunus munsoniana,TX,Dallas,68,https://www.americanforests.org?page_id=55898,https://www.americanforests.org/wp-content/plugins/bigtrees/view_image.php?area=web_pic&image_id=7901,32.7620405,-96.7790069
Lignumvitae Texas,Guaiacum angustifolium,TX,Hidalgo,68,https://www.americanforests.org?page_id=56094,https://www.americanforests.org/wp-content/plugins/bigtrees/NoImageAvailablePicture.jpg,26.3530256,-98.216445
Juniper Common,Juniperus communis,UT,Cache,68,https://www.americanforests.org?page_id=84929,https://www.americanforests.org/wp-content/plugins/bigtrees/view_image.php?area=web_pic&image_id=7713,41.7042978,-111.7451159
Maple Mountain,Acer spicatum,VA,Smyth,67,https://www.americanforests.org?page_id=85010,https://www.americanforests.org/wp-content/plugins/bigtrees/NoImageAvailablePicture.jpg,36.8440149,-81.5418453
Hawthorn Poplar,Crataegus populnea,OH,Wood,67,https://www.americanforests.org?page_id=81999,https://www.americanforests.org/wp-content/plugins/bigtrees/view_image.php?area=web_pic&image_id=5860,41.2776661,-83.6643025
Pistachio Mexican,Pistacia mexicana,TX,Val Verde,67,https://www.americanforests.org?page_id=81815,https://www.americanforests.org/wp-content/plugins/bigtrees/NoImageAvailablePicture.jpg,29.9153286,-101.1284631
Cercocarpus Hairy,Cercocarpus breviflorus,AZ,Santa Cruz,67,https://www.americanforests.org?page_id=55972,https://www.americanforests.org/wp-content/plugins/bigtrees/view_image.php?area=web_pic&image_id=4322,31.5094579,-110.8476281
Peach ,Prunus persica,VA,Powhatan,67,https://www.americanforests.org?page_id=81826,https://www.americanforests.org/wp-content/plugins/bigtrees/NoImageAvailablePicture.jpg,37.5531622,-77.9112655
Yucca Beaked,Yucca thompsoniana,TX,Brewster,66,https://www.americanforests.org?page_id=64559,https://www.americanforests.org/wp-content/plugins/bigtrees/view_image.php?area=web_pic&image_id=8017,29.8462742,-103.2400734
Hawthorn Washington,Crataegus phaenopyrum,VA,Norfolk,66,https://www.americanforests.org?page_id=84941,https://www.americanforests.org/wp-content/plugins/bigtrees/view_image.php?area=web_pic&image_id=7639,42.1538607,-71.1828015
Cliffrose ,Purshia mexicana,AZ,Coconino,66,https://www.americanforests.org?page_id=85008,https://www.americanforests.org/wp-content/plugins/bigtrees/view_image.php?area=web_pic&image_id=7910,35.9363252,-111.6948197
Darling-plum ,Reynosia septentrionalis,FL,Monroe,65,https://www.americanforests.org?page_id=56091,https://www.americanforests.org/wp-content/plugins/bigtrees/NoImageAvailablePicture.jpg,25.0405135,-80.8337157
Elder American,Sambucus canadensis,FL,Lake,65,https://www.americanforests.org?page_id=55496,https://www.americanforests.org/wp-content/plugins/bigtrees/NoImageAvailablePicture.jpg,28.7006859,-81.78994
Winterberry Mountain,Ilex montana,VA,Giles,65,https://www.americanforests.org?page_id=84959,https://www.americanforests.org/wp-content/plugins/bigtrees/NoImageAvailablePicture.jpg,37.3088528,-80.7098781
Devils-walkingstick ,Aralia spinosa,MD,Baltimore,65,https://www.americanforests.org?page_id=84930,https://www.americanforests.org/wp-content/plugins/bigtrees/view_image.php?area=web_pic&image_id=6281,39.4445243,-76.6483482
Cercocarpus Alderleaf,Cercocarpus montanus,MT,Ravalli,64,https://www.americanforests.org?page_id=56379,https://www.americanforests.org/wp-content/plugins/bigtrees/view_image.php?area=web_pic&image_id=2844,46.0757223,-114.1139453
Hibiscus Shrub althea,Hibiscus syriacus,VA,Gloucester,64,https://www.americanforests.org?page_id=84947,https://www.americanforests.org/wp-content/plugins/bigtrees/NoImageAvailablePicture.jpg,37.4452288,-76.5594479
Hawthorn Kansas,Crataegus coccinioides,IL,DuPage,63,https://www.americanforests.org?page_id=85014,https://www.americanforests.org/wp-content/plugins/bigtrees/view_image.php?area=web_pic&image_id=7636,41.8603735,-88.0906873
Yucca Soaptree,Yucca elata,AZ,Pima,63,https://www.americanforests.org?page_id=57959,https://www.americanforests.org/wp-content/plugins/bigtrees/view_image.php?area=web_pic&image_id=8014,32.1112624,-111.6546163
Elephant-tree ,Bursera microphylla,AZ,Yuma,62,https://www.americanforests.org?page_id=55510,https://www.americanforests.org/wp-content/plugins/bigtrees/view_image.php?area=web_pic&image_id=1322,32.7915374,-113.8975031
Caper Jamaica,Capparis cynophallophora,FL,Monroe,62,https://www.americanforests.org?page_id=56362,https://www.americanforests.org/wp-content/plugins/bigtrees/NoImageAvailablePicture.jpg,25.0405135,-80.8337157
Mountain-laurel ,Kalmia latifolia,VA,Grayson,61,https://www.americanforests.org?page_id=84939,https://www.americanforests.org/wp-content/plugins/bigtrees/NoImageAvailablePicture.jpg,33.5636114,-96.6702111
Baccharis Eastern,Baccharis halimifolia,VA,Chesapeake,61,https://www.americanforests.org?page_id=67341,https://www.americanforests.org/wp-content/plugins/bigtrees/NoImageAvailablePicture.jpg,36.7183708,-76.2466798
Hophornbeam Chisos,Ostrya chisosensis,TX,Brewster,60,https://www.americanforests.org?page_id=56067,https://www.americanforests.org/wp-content/plugins/bigtrees/NoImageAvailablePicture.jpg,29.8462742,-103.2400734
Hawthorn Cockspur,Crataegus crus-galli,VA,Montgomery,60,https://www.americanforests.org?page_id=84940,https://www.americanforests.org/wp-content/plugins/bigtrees/NoImageAvailablePicture.jpg,30.301949,-95.5065944
Stopper Boxleaf,Eugenia foetida,FL,Miami-Dade,59,https://www.americanforests.org?page_id=84933,https://www.americanforests.org/wp-content/plugins/bigtrees/NoImageAvailablePicture.jpg,25.6364246,-80.4989467
Willow Sandbar,Salix interior,MT,Ravalli,59,https://www.americanforests.org?page_id=81964,https://www.americanforests.org/wp-content/plugins/bigtrees/NoImageAvailablePicture.jpg,46.0757223,-114.1139453
Dogwood Swamp,Cornus foemina,VA,Isle of Wight,59,https://www.americanforests.org?page_id=55717,https://www.americanforests.org/wp-content/plugins/bigtrees/NoImageAvailablePicture.jpg,36.8953677,-76.7248143
Viburnum Walter,Viburnum obovatum,FL,Alachua,58,https://www.americanforests.org?page_id=81989,https://www.americanforests.org/wp-content/plugins/bigtrees/NoImageAvailablePicture.jpg,29.675568,-82.3640109
Vauquelinia Slimleaf rosewood,Vauquelinia corymbosa,TX,Upton,58,https://www.americanforests.org?page_id=64577,https://www.americanforests.org/wp-content/plugins/bigtrees/NoImageAvailablePicture.jpg,31.3720387,-102.0386055
Indian-fig ,Opuntia ficus-indica,AZ,Pinal,58,https://www.americanforests.org?page_id=55640,https://www.americanforests.org/wp-content/plugins/bigtrees/view_image.php?area=web_pic&image_id=8032,32.8085851,-111.4426212
Yew Florida,Taxus floridana,FL,Liberty,57,https://www.americanforests.org?page_id=56050,https://www.americanforests.org/wp-content/plugins/bigtrees/view_image.php?area=web_pic&image_id=531,30.2506943,-84.8955989
Elder Blackbead,Sambucus melanocarpa,OR,Clackamas,56,https://www.americanforests.org?page_id=55342,https://www.americanforests.org/wp-content/plugins/bigtrees/NoImageAvailablePicture.jpg,45.1608821,-122.2305038
Torchwood Balsam,Amyris elemifera,FL,Monroe,56,https://www.americanforests.org?page_id=55707,https://www.americanforests.org/wp-content/plugins/bigtrees/NoImageAvailablePicture.jpg,25.0405135,-80.8337157
Hawthorn Littlehip,Crataegus spathulata,TX,Montgomery,56,https://www.americanforests.org?page_id=84974,https://www.americanforests.org/wp-content/plugins/bigtrees/NoImageAvailablePicture.jpg,30.301949,-95.5065944
Sumac Evergreen,Rhus virens,TX,Travis,55,https://www.americanforests.org?page_id=55567,https://www.americanforests.org/wp-content/plugins/bigtrees/NoImageAvailablePicture.jpg,30.2878569,-97.7561392
Thatchpalm Florida,Thrinax radiata,FL,Broward,54,https://www.americanforests.org?page_id=56028,https://www.americanforests.org/wp-content/plugins/bigtrees/NoImageAvailablePicture.jpg,26.1598074,-80.4623642
Oak Sonoran scrub,Quercus turbinella,UT,Washington,54,https://www.americanforests.org?page_id=55377,https://www.americanforests.org/wp-content/plugins/bigtrees/view_image.php?area=web_pic&image_id=2855,37.2393471,-113.525776
Nannyberry ,Viburnum lentago,NY,Monroe,54,https://www.americanforests.org?page_id=64617,https://www.americanforests.org/wp-content/plugins/bigtrees/view_image.php?area=web_pic&image_id=5297,43.150094,-77.6810141
Myrtle-of-the-river ,Calyptranthes zuzygium,FL,Miami-Dade,54,https://www.americanforests.org?page_id=55455,https://www.americanforests.org/wp-content/plugins/bigtrees/NoImageAvailablePicture.jpg,25.6364246,-80.4989467
Sumac Evergreen,Rhus virens,TX,Comal,54,https://www.americanforests.org?page_id=64632,https://www.americanforests.org/wp-content/plugins/bigtrees/view_image.php?area=web_pic&image_id=7962,29.7979704,-98.2690787
Myrtle-of-the-river ,Calyptranthes zuzygium,FL,Miami-Dade,54,https://www.americanforests.org?page_id=55454,https://www.americanforests.org/wp-content/plugins/bigtrees/NoImageAvailablePicture.jpg,25.6364246,-80.4989467
Sumac Evergreen,Rhus virens,TX,Uvalde,53,https://www.americanforests.org?page_id=81941,https://www.americanforests.org/wp-content/plugins/bigtrees/view_image.php?area=web_pic&image_id=213,29.300357,-99.7733181
Clusia Florida,Clusia rosea,FL,Broward,53,https://www.americanforests.org?page_id=55988,https://www.americanforests.org/wp-content/plugins/bigtrees/NoImageAvailablePicture.jpg,26.1598074,-80.4623642
Hawthorn Parsley,Crataegus marshallii,VA,Southampton,53,https://www.americanforests.org?page_id=55470,https://www.americanforests.org/wp-content/plugins/bigtrees/NoImageAvailablePicture.jpg,36.6959378,-77.1586002
Sagebrush Big,Artemisia tridentata,OR,Jefferson,53,https://www.americanforests.org?page_id=55992,https://www.americanforests.org/wp-content/plugins/bigtrees/view_image.php?area=web_pic&image_id=5772,44.6072499,-121.2463145
Spicebush ,Lindera benzoin,MD,Washington,52,https://www.americanforests.org?page_id=80379,https://www.americanforests.org/wp-content/plugins/bigtrees/NoImageAvailablePicture.jpg,39.5893502,-77.710254
Thatchpalm Florida,Thrinax radiata,FL,Monroe,51,https://www.americanforests.org?page_id=84984,https://www.americanforests.org/wp-content/plugins/bigtrees/view_image.php?area=web_pic&image_id=8002,25.0405135,-80.8337157
Guajillo ,Acacia berlandieri,TX,Uvalde,51,https://www.americanforests.org?page_id=55821,https://www.americanforests.org/wp-content/plugins/bigtrees/NoImageAvailablePicture.jpg,29.300357,-99.7733181
Ash Goodding,Fraxinus gooddingii,AZ,Santa Cruz,51,https://www.americanforests.org?page_id=55995,https://www.americanforests.org/wp-content/plugins/bigtrees/NoImageAvailablePicture.jpg,31.5094579,-110.8476281
Thatchpalm Florida,Thrinax radiata,FL,Miami-Dade,51,https://www.americanforests.org?page_id=55463,https://www.americanforests.org/wp-content/plugins/bigtrees/NoImageAvailablePicture.jpg,25.6364246,-80.4989467
Hawthorn Pear,Crataegus calpodendron,VA,Alexandria,50,https://www.americanforests.org?page_id=56411,https://www.americanforests.org/wp-content/plugins/bigtrees/NoImageAvailablePicture.jpg,38.8051095,-77.0470229
Bayberry Northern,Morella pensylvanica,CT,Fairfield,50,https://www.americanforests.org?page_id=56356,https://www.americanforests.org/wp-content/plugins/bigtrees/NoImageAvailablePicture.jpg,41.2943069,-73.37486
Spicebush ,Lindera benzoin,MD,Montgomery,50,https://www.americanforests.org?page_id=67276,https://www.americanforests.org/wp-content/plugins/bigtrees/NoImageAvailablePicture.jpg,39.1406267,-77.2075612
Rosemallow Brackenridge,Hibiscus  brackenridgei,HI,Honolulu,49,https://www.americanforests.org?page_id=84972,https://www.americanforests.org/wp-content/plugins/bigtrees/view_image.php?area=web_pic&image_id=7772,21.468151,-157.960511
Lotebush ,Ziziphus obtusifolia,AZ,Yavapai,49,https://www.americanforests.org?page_id=55514,https://www.americanforests.org/wp-content/plugins/bigtrees/view_image.php?area=web_pic&image_id=8019,34.5668857,-112.5515965
Willow Shining,Salix lucida ssp. lucida,OH,Portage,49,https://www.americanforests.org?page_id=84966,https://www.americanforests.org/wp-content/plugins/bigtrees/NoImageAvailablePicture.jpg,41.1496775,-81.2082
Sumac Mearns,Rhus virens var. choriophylla,AZ,Santa Cruz,48,https://www.americanforests.org?page_id=55751,https://www.americanforests.org/wp-content/plugins/bigtrees/NoImageAvailablePicture.jpg,31.5094579,-110.8476281
Guajillo ,Acacia berlandieri,AZ,Pima,48,https://www.americanforests.org?page_id=85006,https://www.americanforests.org/wp-content/plugins/bigtrees/view_image.php?area=web_pic&image_id=4651,32.1112624,-111.6546163
Buckthorn Carolina,Rhamnus caroliniana,NC,Rutherford,47,https://www.americanforests.org?page_id=55383,https://www.americanforests.org/wp-content/plugins/bigtrees/NoImageAvailablePicture.jpg,35.3994626,-81.9023191
Stopper Red,Eugenia rhombea,FL,Monroe,47,https://www.americanforests.org?page_id=55939,https://www.americanforests.org/wp-content/plugins/bigtrees/NoImageAvailablePicture.jpg,25.0405135,-80.8337157
Hawthorn Scarlet,Crataegus coccinea,IL,Lisle,47,https://www.americanforests.org?page_id=84979,https://www.americanforests.org/wp-content/plugins/bigtrees/NoImageAvailablePicture.jpg,,
Kidneywood Texas,Eysenhardtia texana,AZ,Pinal,47,https://www.americanforests.org?page_id=55891,https://www.americanforests.org/wp-content/plugins/bigtrees/NoImageAvailablePicture.jpg,32.8085851,-111.4426212
Sumac Nenelau,Rhus sandwicensis,HI,HawaiÊ»i,46,https://www.americanforests.org?page_id=60022,https://www.americanforests.org/wp-content/plugins/bigtrees/NoImageAvailablePicture.jpg,19.6273325,-155.5645619
Thatchpalm Key,Thrinax morrisii,FL,Miami-Dade,46,https://www.americanforests.org?page_id=55970,https://www.americanforests.org/wp-content/plugins/bigtrees/NoImageAvailablePicture.jpg,25.6364246,-80.4989467
Saw-palmetto ,Serenoa repens,FL,St. Lucie,45,https://www.americanforests.org?page_id=56058,https://www.americanforests.org/wp-content/plugins/bigtrees/view_image.php?area=web_pic&image_id=7979,27.3900897,-80.457904
Buckthorn Carolina,Rhamnus caroliniana,MO,Reynolds,45,https://www.americanforests.org?page_id=81937,https://www.americanforests.org/wp-content/plugins/bigtrees/view_image.php?area=web_pic&image_id=7755,37.3762658,-90.9659462
Hawthorn Cerro,Crataegus erythropoda,CO,Larimer,45,https://www.americanforests.org?page_id=64552,https://www.americanforests.org/wp-content/plugins/bigtrees/view_image.php?area=web_pic&image_id=6342,40.6810174,-105.4726907
Poison-sumac ,Toxicodendron vernix,VA,Caroline,44,https://www.americanforests.org?page_id=84943,https://www.americanforests.org/wp-content/plugins/bigtrees/NoImageAvailablePicture.jpg,38.0320305,-77.362363
Mexican-buckeye ,Ungnadia speciosa,TX,Victoria,44,https://www.americanforests.org?page_id=84960,https://www.americanforests.org/wp-content/plugins/bigtrees/NoImageAvailablePicture.jpg,28.8026443,-96.9766308
Winterberry Common,Ilex verticillata,VA,Chesapeake,44,https://www.americanforests.org?page_id=55724,https://www.americanforests.org/wp-content/plugins/bigtrees/view_image.php?area=web_pic&image_id=1966,36.7183708,-76.2466798
Hazel California,Corylus cornuta var. californica,OR,Clackamas,44,https://www.americanforests.org?page_id=84977,https://www.americanforests.org/wp-content/plugins/bigtrees/NoImageAvailablePicture.jpg,45.1608821,-122.2305038
Yucca Trecul,Yucca treculeana,TX,Bexar,44,https://www.americanforests.org?page_id=55336,https://www.americanforests.org/wp-content/plugins/bigtrees/view_image.php?area=web_pic&image_id=8018,29.4263987,-98.5104781
Paurotis-palm ,Acoelorraphe wrightii,FL,Miami-Dade,43,https://www.americanforests.org?page_id=55990,https://www.americanforests.org/wp-content/plugins/bigtrees/NoImageAvailablePicture.jpg,25.6364246,-80.4989467
Ash Gregg,Fraxinus greggii,AZ,Pima,42,https://www.americanforests.org?page_id=67934,https://www.americanforests.org/wp-content/plugins/bigtrees/view_image.php?area=web_pic&image_id=7676,32.1112624,-111.6546163
Scarletbush ,Hamelia patens,FL,Brevard,41,https://www.americanforests.org?page_id=55857,https://www.americanforests.org/wp-content/plugins/bigtrees/view_image.php?area=web_pic&image_id=5932,28.2100203,-80.7997185
Swamp-privet Florida,Forestiera segregata,FL,Miami-Dade,41,https://www.americanforests.org?page_id=84935,https://www.americanforests.org/wp-content/plugins/bigtrees/NoImageAvailablePicture.jpg,25.6364246,-80.4989467
Bladdernut American,Staphylea trifolia,VA,Page,41,https://www.americanforests.org?page_id=81973,https://www.americanforests.org/wp-content/plugins/bigtrees/NoImageAvailablePicture.jpg,38.6002354,-78.5016516
Strongback Rough,Bourreria radula,FL,Miami-Dade,41,https://www.americanforests.org?page_id=84931,https://www.americanforests.org/wp-content/plugins/bigtrees/NoImageAvailablePicture.jpg,25.6364246,-80.4989467
Florida-boxwood ,Schaefferia frutescens,FL,Monroe,41,https://www.americanforests.org?page_id=55395,https://www.americanforests.org/wp-content/plugins/bigtrees/view_image.php?area=web_pic&image_id=5746,25.0405135,-80.8337157
Dogwood Gray,Cornus racemosa,VA,Grayson,39,https://www.americanforests.org?page_id=84937,https://www.americanforests.org/wp-content/plugins/bigtrees/NoImageAvailablePicture.jpg,33.5636114,-96.6702111
Orange Hardy,Poncirus trifoliata,VA,Richmond,38,https://www.americanforests.org?page_id=84945,https://www.americanforests.org/wp-content/plugins/bigtrees/NoImageAvailablePicture.jpg,40.564209,-74.12530461995391
Buttonbush Common,Cephalanthus occidentalis,MD,Montgomery,38,https://www.americanforests.org?page_id=82342,https://www.americanforests.org/wp-content/plugins/bigtrees/view_image.php?area=web_pic&image_id=3035,39.1406267,-77.2075612
Mountain-ash Greene,Sorbus scopulina,MT,Ravalli,37,https://www.americanforests.org?page_id=64591,https://www.americanforests.org/wp-content/plugins/bigtrees/NoImageAvailablePicture.jpg,46.0757223,-114.1139453
Snowbell American,Styrax americanus,VA,Isle of Wight,37,https://www.americanforests.org?page_id=84997,https://www.americanforests.org/wp-content/plugins/bigtrees/NoImageAvailablePicture.jpg,36.8953677,-76.7248143
Acacia Whitethorn,Vachellia constricta,AZ,Pinal,34,https://www.americanforests.org?page_id=57961,https://www.americanforests.org/wp-content/plugins/bigtrees/view_image.php?area=web_pic&image_id=2660,32.8085851,-111.4426212
Lidflower Pale,Calyptranthes pallens,FL,Miami-Dade,34,https://www.americanforests.org?page_id=55488,https://www.americanforests.org/wp-content/plugins/bigtrees/NoImageAvailablePicture.jpg,25.6364246,-80.4989467
Anise-tree Florida,Illicium floridanum,VA,Williamsburg,34,https://www.americanforests.org?page_id=84938,https://www.americanforests.org/wp-content/plugins/bigtrees/view_image.php?area=web_pic&image_id=7786,33.6442699,-79.7442135
Mullein nightshade Potato-tree,Solanum erianthum,TX,Hidalgo,32,https://www.americanforests.org?page_id=55897,https://www.americanforests.org/wp-content/plugins/bigtrees/NoImageAvailablePicture.jpg,26.3530256,-98.216445
Mesquite Screwbean,Prosopis pubescens,TX,Brewster,32,https://www.americanforests.org?page_id=84911,https://www.americanforests.org/wp-content/plugins/bigtrees/view_image.php?area=web_pic&image_id=7890,29.8462742,-103.2400734
Cholla Jumping,Cylindropuntia fulgida,AZ,Pinal,32,https://www.americanforests.org?page_id=84958,https://www.americanforests.org/wp-content/plugins/bigtrees/view_image.php?area=web_pic&image_id=7646,32.8085851,-111.4426212
Snowbell Bigleaf,Styrax grandifolius,VA,Chesapeake,31,https://www.americanforests.org?page_id=84999,https://www.americanforests.org/wp-content/plugins/bigtrees/NoImageAvailablePicture.jpg,36.7183708,-76.2466798
Anise-tree Yellow,Illicium parviflorum,FL,Marion,30,https://www.americanforests.org?page_id=84975,https://www.americanforests.org/wp-content/plugins/bigtrees/NoImageAvailablePicture.jpg,29.2182454,-82.0626948
Hawthorn Reverchon,Crataegus reverchonii,TX,Dallas,25,https://www.americanforests.org?page_id=55561,https://www.americanforests.org/wp-content/plugins/bigtrees/view_image.php?area=web_pic&image_id=5933,32.7620405,-96.7790069
Bayberry Evergreen,Morella caroliniensis,VA,Newport News,24,https://www.americanforests.org?page_id=56398,https://www.americanforests.org/wp-content/plugins/bigtrees/NoImageAvailablePicture.jpg,37.0914429,-76.5213892
Bayberry Evergreen,Morella caroliniensis,VA,Newport News,24,https://www.americanforests.org?page_id=64742,https://www.americanforests.org/wp-content/plugins/bigtrees/NoImageAvailablePicture.jpg,37.0914429,-76.5213892
